[
  {
    "id": 2,
    "name_en": "Japan",
    "name_th": "日本",
    "name_jp": "日本",
    "name_kr": "日本",
    "code": "JP",
    "currency": "JPY",
    "currency_sign": "¥",
    "cities": [
      {
        "id": 114,
        "name_en": "Ota-ku",
        "name_th": "Ota-ku",
        "name_jp": "大田区",
        "name_kr": "Ota-ku",
        "districts": []
      },
      {
        "id": 115,
        "name_en": "Nerima-ku",
        "name_th": "Nerima-ku",
        "name_jp": "練馬区",
        "name_kr": "Nerima-ku",
        "districts": []
      },
      {
        "id": 116,
        "name_en": "Suginami-ku",
        "name_th": "Suginami-ku",
        "name_jp": "杉並区",
        "name_kr": "Suginami-ku",
        "districts": []
      },
      {
        "id": 117,
        "name_en": "Itabashi-ku",
        "name_th": "Itabashi-ku",
        "name_jp": "板橋区",
        "name_kr": "Itabashi-ku",
        "districts": []
      },
      {
        "id": 118,
        "name_en": "Edogawa-ku",
        "name_th": "Edogawa-ku",
        "name_jp": "江戸川区",
        "name_kr": "Edogawa-ku",
        "districts": []
      },
      {
        "id": 119,
        "name_en": "Setagaya-ku",
        "name_th": "Setagaya-ku",
        "name_jp": "世田谷区",
        "name_kr": "Setagaya-ku",
        "districts": []
      },
      {
        "id": 120,
        "name_en": "Adachi-ku",
        "name_th": "Adachi-ku",
        "name_jp": "足立区",
        "name_kr": "Adachi-ku",
        "districts": []
      },
      {
        "id": 121,
        "name_en": "Meguro-ku",
        "name_th": "Meguro-ku",
        "name_jp": "目黒区",
        "name_kr": "Meguro-ku",
        "districts": []
      },
      {
        "id": 122,
        "name_en": "Koto-ku",
        "name_th": "Koto-ku",
        "name_jp": "江東区",
        "name_kr": "Koto-ku",
        "districts": []
      },
      {
        "id": 123,
        "name_en": "Kodaira-shi",
        "name_th": "Kodaira-shi",
        "name_jp": "小平市",
        "name_kr": "Kodaira-shi",
        "districts": []
      },
      {
        "id": 124,
        "name_en": "Hino-shi",
        "name_th": "Hino-shi",
        "name_jp": "日野市",
        "name_kr": "Hino-shi",
        "districts": []
      },
      {
        "id": 125,
        "name_en": "Machida-shi",
        "name_th": "Machida-shi",
        "name_jp": "町田市",
        "name_kr": "Machida-shi",
        "districts": []
      },
      {
        "id": 126,
        "name_en": "Mitaka-shi",
        "name_th": "Mitaka-shi",
        "name_jp": "三鷹市",
        "name_kr": "Mitaka-shi",
        "districts": []
      },
      {
        "id": 127,
        "name_en": "Tachikawa-shi",
        "name_th": "Tachikawa-shi",
        "name_jp": "立川市",
        "name_kr": "Tachikawa-shi",
        "districts": []
      },
      {
        "id": 128,
        "name_en": "Chofu-shi",
        "name_th": "Chofu-shi",
        "name_jp": "調布市",
        "name_kr": "Chofu-shi",
        "districts": [
          {
            "id": 356,
            "name_en": "東京都",
            "name_th": "東京都",
            "name_jp": "東京都",
            "name_kr": "東京都"
          }
        ]
      },
      {
        "id": 129,
        "name_en": "Higashikurume-shi",
        "name_th": "Higashikurume-shi",
        "name_jp": "東久留米市",
        "name_kr": "Higashikurume-shi",
        "districts": []
      },
      {
        "id": 130,
        "name_en": "Inagi-shi",
        "name_th": "Inagi-shi",
        "name_jp": "稲城市",
        "name_kr": "Inagi-shi",
        "districts": []
      },
      {
        "id": 131,
        "name_en": "Yokohama-shi",
        "name_th": "Yokohama-shi",
        "name_jp": "横浜市",
        "name_kr": "Yokohama-shi",
        "districts": []
      },
      {
        "id": 132,
        "name_en": "Kawasaki-shi",
        "name_th": "Kawasaki-shi",
        "name_jp": "川崎市",
        "name_kr": "Kawasaki-shi",
        "districts": []
      },
      {
        "id": 133,
        "name_en": "Kamakura-shi",
        "name_th": "Kamakura-shi",
        "name_jp": "鎌倉市",
        "name_kr": "Kamakura-shi",
        "districts": []
      },
      {
        "id": 134,
        "name_en": "Fujisawa-shi",
        "name_th": "Fujisawa-shi",
        "name_jp": "藤沢市",
        "name_kr": "Fujisawa-shi",
        "districts": []
      },
      {
        "id": 135,
        "name_en": "Chigasaki-shi",
        "name_th": "Chigasaki-shi",
        "name_jp": "茅ヶ崎市",
        "name_kr": "Chigasaki-shi",
        "districts": []
      },
      {
        "id": 136,
        "name_en": "Sagamihara-shi",
        "name_th": "Sagamihara-shi",
        "name_jp": "相模原市",
        "name_kr": "Sagamihara-shi",
        "districts": []
      },
      {
        "id": 137,
        "name_en": "Saitama-shi",
        "name_th": "Saitama-shi",
        "name_jp": "さいたま市",
        "name_kr": "Saitama-shi",
        "districts": []
      },
      {
        "id": 138,
        "name_en": "Koshigaya-shi",
        "name_th": "Koshigaya-shi",
        "name_jp": "越谷市",
        "name_kr": "Koshigaya-shi",
        "districts": []
      },
      {
        "id": 145,
        "name_en": "Chiba-shi",
        "name_th": "Chiba-shi",
        "name_jp": "千葉",
        "name_kr": "Chiba-shi",
        "districts": []
      },
      {
        "id": 139,
        "name_en": "Chiba-shi",
        "name_th": "Chiba-shi",
        "name_jp": "千葉市",
        "name_kr": "Chiba-shi",
        "districts": [
          {
            "id": 238,
            "name_en": "Ichikawa-shi",
            "name_th": "Ichikawa-shi",
            "name_jp": "市川",
            "name_kr": "Ichikawa-shi"
          },
          {
            "id": 291,
            "name_en": "Mihama-ku",
            "name_th": "Mihama-ku",
            "name_jp": "美浜区",
            "name_kr": "Mihama-ku"
          },
          {
            "id": 292,
            "name_en": "Wakaba-ku",
            "name_th": "Wakaba-ku",
            "name_jp": "若葉区",
            "name_kr": "Wakaba-ku"
          },
          {
            "id": 293,
            "name_en": "Midori-ku",
            "name_th": "Midori-ku",
            "name_jp": "緑区",
            "name_kr": "Midori-ku"
          },
          {
            "id": 294,
            "name_en": "Hanamigawa-ku",
            "name_th": "Hanamigawa-ku",
            "name_jp": "花見川区",
            "name_kr": "Hanamigawa-ku"
          },
          {
            "id": 295,
            "name_en": "Inage-ku",
            "name_th": "Inage-ku",
            "name_jp": "稲毛区",
            "name_kr": "Inage-ku"
          },
          {
            "id": 296,
            "name_en": "Urayasu-shi",
            "name_th": "Urayasu-shi",
            "name_jp": "浦安市",
            "name_kr": "Urayasu-shi"
          },
          {
            "id": 297,
            "name_en": "Chosei-gun Chosei-mura",
            "name_th": "Chosei-gun Chosei-mura",
            "name_jp": "長生郡長生村",
            "name_kr": "Chosei-gun Chosei-mura"
          },
          {
            "id": 298,
            "name_en": "Narita-shi",
            "name_th": "Narita-shi",
            "name_jp": "成田市",
            "name_kr": "Narita-shi"
          },
          {
            "id": 299,
            "name_en": "Mobara-shi",
            "name_th": "Mobara-shi",
            "name_jp": "茂原市",
            "name_kr": "Mobara-shi"
          },
          {
            "id": 300,
            "name_en": "Ichihara-shi",
            "name_th": "Ichihara-shi",
            "name_jp": "市原市",
            "name_kr": "Ichihara-shi"
          },
          {
            "id": 301,
            "name_en": "Yachimata-shi",
            "name_th": "Yachimata-shi",
            "name_jp": "八街市",
            "name_kr": "Yachimata-shi"
          },
          {
            "id": 302,
            "name_en": "Kisarazu-shi",
            "name_th": "Kisarazu-shi",
            "name_jp": "木更津市",
            "name_kr": "Kisarazu-shi"
          },
          {
            "id": 303,
            "name_en": "Katori-shi",
            "name_th": "Katori-shi",
            "name_jp": "香取市",
            "name_kr": "Katori-shi"
          },
          {
            "id": 304,
            "name_en": "Tomisato-shi",
            "name_th": "Tomisato-shi",
            "name_jp": "富里市",
            "name_kr": "Tomisato-shi"
          },
          {
            "id": 305,
            "name_en": "Abiko-shi",
            "name_th": "Abiko-shi",
            "name_jp": "我孫子市",
            "name_kr": "Abiko-shi"
          },
          {
            "id": 306,
            "name_en": "Sanbu-gun Kujukurihama-machi",
            "name_th": "Sanbu-gun Kujukurihama-machi",
            "name_jp": "山武郡九十九里町",
            "name_kr": "Sanbu-gun Kujukurihama-machi"
          },
          {
            "id": 307,
            "name_en": "Sanbu-shi",
            "name_th": "Sanbu-shi",
            "name_jp": "山武市",
            "name_kr": "Sanbu-shi"
          },
          {
            "id": 308,
            "name_en": "Kimitsu-shi",
            "name_th": "Kimitsu-shi",
            "name_jp": "君津市",
            "name_kr": "Kimitsu-shi"
          },
          {
            "id": 309,
            "name_en": "Asahi-shi",
            "name_th": "Asahi-shi",
            "name_jp": "旭市",
            "name_kr": "Asahi-shi"
          },
          {
            "id": 310,
            "name_en": "Inzai-shi",
            "name_th": "Inzai-shi",
            "name_jp": "印西市",
            "name_kr": "Inzai-shi"
          },
          {
            "id": 311,
            "name_en": "Sodegaura-shi",
            "name_th": "Sodegaura-shi",
            "name_jp": "袖ケ浦市",
            "name_kr": "Sodegaura-shi"
          },
          {
            "id": 312,
            "name_en": "Sakura-shi",
            "name_th": "Sakura-shi",
            "name_jp": "佐倉市",
            "name_kr": "Sakura-shi"
          },
          {
            "id": 313,
            "name_en": "Yotsukaido-shi",
            "name_th": "Yotsukaido-shi",
            "name_jp": "四街道市",
            "name_kr": "Yotsukaido-shi"
          },
          {
            "id": 314,
            "name_en": "Kamagaya-shi",
            "name_th": "Kamagaya-shi",
            "name_jp": "鎌ケ谷市",
            "name_kr": "Kamagaya-shi"
          }
        ]
      },
      {
        "id": 140,
        "name_en": "Tokyo (Metropolitan Area)",
        "name_th": "Tokyo (Metropolitan Area)",
        "name_jp": "東京都",
        "name_kr": "Tokyo (Metropolitan Area)",
        "districts": [
          {
            "id": 135,
            "name_en": "Kita-ku",
            "name_th": "Kita-ku",
            "name_jp": "北区",
            "name_kr": "Kita-ku"
          },
          {
            "id": 209,
            "name_en": "Chiyoda-ku",
            "name_th": "Chiyoda-ku",
            "name_jp": "千代田",
            "name_kr": "Chiyoda-ku"
          },
          {
            "id": 210,
            "name_en": "Chuo-ku",
            "name_th": "Chuo-ku",
            "name_jp": "中央",
            "name_kr": "Chuo-ku"
          },
          {
            "id": 211,
            "name_en": "Minato-ku",
            "name_th": "Minato-ku",
            "name_jp": "港",
            "name_kr": "Minato-ku"
          },
          {
            "id": 212,
            "name_en": "Shinjuku-ku",
            "name_th": "Shinjuku-ku",
            "name_jp": "新宿",
            "name_kr": "Shinjuku-ku"
          },
          {
            "id": 213,
            "name_en": "Bunkyo-ku",
            "name_th": "Bunkyo-ku",
            "name_jp": "文京",
            "name_kr": "Bunkyo-ku"
          },
          {
            "id": 214,
            "name_en": "Taito-ku",
            "name_th": "Taito-ku",
            "name_jp": "台東",
            "name_kr": "Taito-ku"
          },
          {
            "id": 215,
            "name_en": "Sumida-ku",
            "name_th": "Sumida-ku",
            "name_jp": "墨田",
            "name_kr": "Sumida-ku"
          },
          {
            "id": 216,
            "name_en": "Koto-ku",
            "name_th": "Koto-ku",
            "name_jp": "江東",
            "name_kr": "Koto-ku"
          },
          {
            "id": 217,
            "name_en": "Shinagawa-ku",
            "name_th": "Shinagawa-ku",
            "name_jp": "品川",
            "name_kr": "Shinagawa-ku"
          },
          {
            "id": 218,
            "name_en": "Meguro-ku",
            "name_th": "Meguro-ku",
            "name_jp": "目黒",
            "name_kr": "Meguro-ku"
          },
          {
            "id": 219,
            "name_en": "Ota-ku",
            "name_th": "Ota-ku",
            "name_jp": "大田",
            "name_kr": "Ota-ku"
          },
          {
            "id": 220,
            "name_en": "Setagaya-ku",
            "name_th": "Setagaya-ku",
            "name_jp": "世田谷",
            "name_kr": "Setagaya-ku"
          },
          {
            "id": 221,
            "name_en": "Shibuya-ku",
            "name_th": "Shibuya-ku",
            "name_jp": "渋谷",
            "name_kr": "Shibuya-ku"
          },
          {
            "id": 222,
            "name_en": "Nakano-ku",
            "name_th": "Nakano-ku",
            "name_jp": "中野",
            "name_kr": "Nakano-ku"
          },
          {
            "id": 223,
            "name_en": "Suginami-ku",
            "name_th": "Suginami-ku",
            "name_jp": "杉並",
            "name_kr": "Suginami-ku"
          },
          {
            "id": 224,
            "name_en": "Toshima-ku",
            "name_th": "Toshima-ku",
            "name_jp": "豊島",
            "name_kr": "Toshima-ku"
          },
          {
            "id": 225,
            "name_en": "Kita0ku",
            "name_th": "Kita0ku",
            "name_jp": "北",
            "name_kr": "Kita0ku"
          },
          {
            "id": 226,
            "name_en": "Arakawa-ku",
            "name_th": "Arakawa-ku",
            "name_jp": "荒川",
            "name_kr": "Arakawa-ku"
          },
          {
            "id": 227,
            "name_en": "Itabashi-ku",
            "name_th": "Itabashi-ku",
            "name_jp": "板橋",
            "name_kr": "Itabashi-ku"
          },
          {
            "id": 228,
            "name_en": "Nerima-ku",
            "name_th": "Nerima-ku",
            "name_jp": "練馬",
            "name_kr": "Nerima-ku"
          },
          {
            "id": 229,
            "name_en": "Adachi-ku",
            "name_th": "Adachi-ku",
            "name_jp": "足立",
            "name_kr": "Adachi-ku"
          },
          {
            "id": 230,
            "name_en": "Katsushika-ku",
            "name_th": "Katsushika-ku",
            "name_jp": "葛飾",
            "name_kr": "Katsushika-ku"
          },
          {
            "id": 231,
            "name_en": "Edogawa-ku",
            "name_th": "Edogawa-ku",
            "name_jp": "江戸川",
            "name_kr": "Edogawa-ku"
          },
          {
            "id": 232,
            "name_en": "Hachioji-shi",
            "name_th": "Hachioji-shi",
            "name_jp": "八王子",
            "name_kr": "Hachioji-shi"
          },
          {
            "id": 233,
            "name_en": "Tachikawa-shi",
            "name_th": "Tachikawa-shi",
            "name_jp": "立川",
            "name_kr": "Tachikawa-shi"
          },
          {
            "id": 234,
            "name_en": "NIshitokyo-shi",
            "name_th": "NIshitokyo-shi",
            "name_jp": "西東京",
            "name_kr": "NIshitokyo-shi"
          },
          {
            "id": 106,
            "name_en": "Ota-ku",
            "name_th": "Ota-ku",
            "name_jp": "大田区",
            "name_kr": "Ota-ku"
          },
          {
            "id": 107,
            "name_en": "Nerima-ku",
            "name_th": "Nerima-ku",
            "name_jp": "練馬区",
            "name_kr": "Nerima-ku"
          },
          {
            "id": 108,
            "name_en": "Suginami-ku",
            "name_th": "Suginami-ku",
            "name_jp": "杉並区",
            "name_kr": "Suginami-ku"
          },
          {
            "id": 109,
            "name_en": "Itabashi-ku",
            "name_th": "Itabashi-ku",
            "name_jp": "板橋区",
            "name_kr": "Itabashi-ku"
          },
          {
            "id": 110,
            "name_en": "Edogawa-ku",
            "name_th": "Edogawa-ku",
            "name_jp": "江戸川区",
            "name_kr": "Edogawa-ku"
          },
          {
            "id": 111,
            "name_en": "Setagaya-ku",
            "name_th": "Setagaya-ku",
            "name_jp": "世田谷区",
            "name_kr": "Setagaya-ku"
          },
          {
            "id": 112,
            "name_en": "Adachi-ku",
            "name_th": "Adachi-ku",
            "name_jp": "足立区",
            "name_kr": "Adachi-ku"
          },
          {
            "id": 113,
            "name_en": "Meguro-ku",
            "name_th": "Meguro-ku",
            "name_jp": "目黒区",
            "name_kr": "Meguro-ku"
          },
          {
            "id": 114,
            "name_en": "Koto-ku",
            "name_th": "Koto-ku",
            "name_jp": "江東区",
            "name_kr": "Koto-ku"
          },
          {
            "id": 124,
            "name_en": "Chiyoda-ku",
            "name_th": "Chiyoda-ku",
            "name_jp": "千代田区",
            "name_kr": "Chiyoda-ku"
          },
          {
            "id": 125,
            "name_en": "Chuo-ku",
            "name_th": "Chuo-ku",
            "name_jp": "中央区",
            "name_kr": "Chuo-ku"
          },
          {
            "id": 126,
            "name_en": "Minato-ku",
            "name_th": "Minato-ku",
            "name_jp": "港区",
            "name_kr": "Minato-ku"
          },
          {
            "id": 127,
            "name_en": "Shinjuku-ku",
            "name_th": "Shinjuku-ku",
            "name_jp": "新宿区",
            "name_kr": "Shinjuku-ku"
          },
          {
            "id": 128,
            "name_en": "Bunkyo-ku",
            "name_th": "Bunkyo-ku",
            "name_jp": "文京区",
            "name_kr": "Bunkyo-ku"
          },
          {
            "id": 129,
            "name_en": "Taito-ku",
            "name_th": "Taito-ku",
            "name_jp": "台東区",
            "name_kr": "Taito-ku"
          },
          {
            "id": 130,
            "name_en": "Sumida-ku",
            "name_th": "Sumida-ku",
            "name_jp": "墨田区",
            "name_kr": "Sumida-ku"
          },
          {
            "id": 131,
            "name_en": "Hinagawa-ku",
            "name_th": "Hinagawa-ku",
            "name_jp": "品川区",
            "name_kr": "Hinagawa-ku"
          },
          {
            "id": 132,
            "name_en": "Shibuya-ku",
            "name_th": "Shibuya-ku",
            "name_jp": "渋谷区",
            "name_kr": "Shibuya-ku"
          },
          {
            "id": 133,
            "name_en": "Nakano-ku",
            "name_th": "Nakano-ku",
            "name_jp": "中野区",
            "name_kr": "Nakano-ku"
          },
          {
            "id": 134,
            "name_en": "Toshima-ku",
            "name_th": "Toshima-ku",
            "name_jp": "豊島区",
            "name_kr": "Toshima-ku"
          },
          {
            "id": 136,
            "name_en": "Arakawa-ku",
            "name_th": "Arakawa-ku",
            "name_jp": "荒川区",
            "name_kr": "Arakawa-ku"
          },
          {
            "id": 137,
            "name_en": "Katsushika-ku",
            "name_th": "Katsushika-ku",
            "name_jp": "葛飾区",
            "name_kr": "Katsushika-ku"
          },
          {
            "id": 138,
            "name_en": "Hachioji-shi",
            "name_th": "Hachioji-shi",
            "name_jp": "八王子市",
            "name_kr": "Hachioji-shi"
          },
          {
            "id": 139,
            "name_en": "Tachikawa-shi",
            "name_th": "Tachikawa-shi",
            "name_jp": "立川市",
            "name_kr": "Tachikawa-shi"
          },
          {
            "id": 140,
            "name_en": "Mitaka-shi",
            "name_th": "Mitaka-shi",
            "name_jp": "三鷹市",
            "name_kr": "Mitaka-shi"
          },
          {
            "id": 141,
            "name_en": "Ome-shi",
            "name_th": "Ome-shi",
            "name_jp": "青梅市",
            "name_kr": "Ome-shi"
          },
          {
            "id": 142,
            "name_en": "Fuchu-shi",
            "name_th": "Fuchu-shi",
            "name_jp": "府中市",
            "name_kr": "Fuchu-shi"
          },
          {
            "id": 143,
            "name_en": "Machida-shi",
            "name_th": "Machida-shi",
            "name_jp": "町田市",
            "name_kr": "Machida-shi"
          },
          {
            "id": 144,
            "name_en": "Koganei-shi",
            "name_th": "Koganei-shi",
            "name_jp": "小金井市",
            "name_kr": "Koganei-shi"
          },
          {
            "id": 145,
            "name_en": "Kodaira-shi",
            "name_th": "Kodaira-shi",
            "name_jp": "小平市",
            "name_kr": "Kodaira-shi"
          },
          {
            "id": 146,
            "name_en": "Hino-shi",
            "name_th": "Hino-shi",
            "name_jp": "日野市",
            "name_kr": "Hino-shi"
          },
          {
            "id": 147,
            "name_en": "Higashiyamato-shi",
            "name_th": "Higashiyamato-shi",
            "name_jp": "東大和市",
            "name_kr": "Higashiyamato-shi"
          },
          {
            "id": 148,
            "name_en": "Kiyose-shi",
            "name_th": "Kiyose-shi",
            "name_jp": "清瀬市",
            "name_kr": "Kiyose-shi"
          },
          {
            "id": 149,
            "name_en": "HIgashikurume-shi",
            "name_th": "HIgashikurume-shi",
            "name_jp": "東久留米市",
            "name_kr": "HIgashikurume-shi"
          },
          {
            "id": 150,
            "name_en": "Tama-shi",
            "name_th": "Tama-shi",
            "name_jp": "多摩市",
            "name_kr": "Tama-shi"
          },
          {
            "id": 151,
            "name_en": "NIshitokyo-shi",
            "name_th": "NIshitokyo-shi",
            "name_jp": "西東京市",
            "name_kr": "NIshitokyo-shi"
          },
          {
            "id": 249,
            "name_en": "Musashino-shi",
            "name_th": "Musashino-shi",
            "name_jp": "武蔵野市",
            "name_kr": "Musashino-shi"
          }
        ]
      },
      {
        "id": 141,
        "name_en": "Kanagawa-ken",
        "name_th": "Kanagawa-ken",
        "name_jp": "神奈川県",
        "name_kr": "Kanagawa-ken",
        "districts": [
          {
            "id": 235,
            "name_en": "Yokohama-shi",
            "name_th": "Yokohama-shi",
            "name_jp": "横浜",
            "name_kr": "Yokohama-shi"
          },
          {
            "id": 236,
            "name_en": "Kawasaki-shi",
            "name_th": "Kawasaki-shi",
            "name_jp": "川崎",
            "name_kr": "Kawasaki-shi"
          },
          {
            "id": 237,
            "name_en": "Atsugi-shi",
            "name_th": "Atsugi-shi",
            "name_jp": "厚木",
            "name_kr": "Atsugi-shi"
          },
          {
            "id": 115,
            "name_en": "Yokohama-shi",
            "name_th": "Yokohama-shi",
            "name_jp": "横浜市",
            "name_kr": "Yokohama-shi"
          },
          {
            "id": 116,
            "name_en": "Kawasaki-shi",
            "name_th": "Kawasaki-shi",
            "name_jp": "川崎市",
            "name_kr": "Kawasaki-shi"
          },
          {
            "id": 117,
            "name_en": "Kamakura-shi",
            "name_th": "Kamakura-shi",
            "name_jp": "鎌倉市",
            "name_kr": "Kamakura-shi"
          },
          {
            "id": 118,
            "name_en": "Fujisawa-shi",
            "name_th": "Fujisawa-shi",
            "name_jp": "藤沢市",
            "name_kr": "Fujisawa-shi"
          },
          {
            "id": 119,
            "name_en": "Chigasaki-shi",
            "name_th": "Chigasaki-shi",
            "name_jp": "茅ヶ崎市",
            "name_kr": "Chigasaki-shi"
          },
          {
            "id": 120,
            "name_en": "Sagamihara-shi",
            "name_th": "Sagamihara-shi",
            "name_jp": "相模原市",
            "name_kr": "Sagamihara-shi"
          },
          {
            "id": 271,
            "name_en": "Kawasaki-shi Takatsu-ku",
            "name_th": "Kawasaki-shi Takatsu-ku",
            "name_jp": "川崎市高津区",
            "name_kr": "Kawasaki-shi Takatsu-ku"
          },
          {
            "id": 272,
            "name_en": "Yokohama-shi Kanazawa-ku",
            "name_th": "Yokohama-shi Kanazawa-ku",
            "name_jp": "横浜市金沢区",
            "name_kr": "Yokohama-shi Kanazawa-ku"
          }
        ]
      },
      {
        "id": 142,
        "name_en": "Saitama-ken",
        "name_th": "Saitama-ken",
        "name_jp": "埼玉県",
        "name_kr": "Saitama-ken",
        "districts": [
          {
            "id": 154,
            "name_en": "Saitama-shi Chuo-ku",
            "name_th": "Saitama-shi Chuo-ku",
            "name_jp": "さいたま市中央区",
            "name_kr": "Saitama-shi Chuo-ku"
          },
          {
            "id": 155,
            "name_en": "Saitama-shi Sakura-ku",
            "name_th": "Saitama-shi Sakura-ku",
            "name_jp": "さいたま市桜区",
            "name_kr": "Saitama-shi Sakura-ku"
          },
          {
            "id": 156,
            "name_en": "Saitama-shi Urawa-ku",
            "name_th": "Saitama-shi Urawa-ku",
            "name_jp": "さいたま市浦和区",
            "name_kr": "Saitama-shi Urawa-ku"
          },
          {
            "id": 157,
            "name_en": "Saitama-shi MInami-ku",
            "name_th": "Saitama-shi MInami-ku",
            "name_jp": "さいたま市南区",
            "name_kr": "Saitama-shi MInami-ku"
          },
          {
            "id": 158,
            "name_en": "Saitama-shi Midori-ku",
            "name_th": "Saitama-shi Midori-ku",
            "name_jp": "さいたま市緑区",
            "name_kr": "Saitama-shi Midori-ku"
          },
          {
            "id": 159,
            "name_en": "Kawaguchi-shi",
            "name_th": "Kawaguchi-shi",
            "name_jp": "川口市",
            "name_kr": "Kawaguchi-shi"
          },
          {
            "id": 160,
            "name_en": "Tokorozawa-shi",
            "name_th": "Tokorozawa-shi",
            "name_jp": "所沢市",
            "name_kr": "Tokorozawa-shi"
          },
          {
            "id": 161,
            "name_en": "Kasukabe-shi",
            "name_th": "Kasukabe-shi",
            "name_jp": "春日部市",
            "name_kr": "Kasukabe-shi"
          },
          {
            "id": 162,
            "name_en": "Kounosu City",
            "name_th": "Kounosu City",
            "name_jp": "鴻巣市",
            "name_kr": "Kounosu City"
          },
          {
            "id": 163,
            "name_en": "Ageo-shi",
            "name_th": "Ageo-shi",
            "name_jp": "上尾市",
            "name_kr": "Ageo-shi"
          },
          {
            "id": 164,
            "name_en": "Souka-shi",
            "name_th": "Souka-shi",
            "name_jp": "草加市",
            "name_kr": "Souka-shi"
          },
          {
            "id": 165,
            "name_en": "Warabi-shi",
            "name_th": "Warabi-shi",
            "name_jp": "蕨市",
            "name_kr": "Warabi-shi"
          },
          {
            "id": 166,
            "name_en": "Toda-shi",
            "name_th": "Toda-shi",
            "name_jp": "戸田市",
            "name_kr": "Toda-shi"
          },
          {
            "id": 167,
            "name_en": "Asaka-shi",
            "name_th": "Asaka-shi",
            "name_jp": "朝霞市",
            "name_kr": "Asaka-shi"
          },
          {
            "id": 168,
            "name_en": "Niiza-shi",
            "name_th": "Niiza-shi",
            "name_jp": "新座市",
            "name_kr": "Niiza-shi"
          },
          {
            "id": 169,
            "name_en": "Kitamoto-shi",
            "name_th": "Kitamoto-shi",
            "name_jp": "北本市",
            "name_kr": "Kitamoto-shi"
          },
          {
            "id": 170,
            "name_en": "Yashio-shi",
            "name_th": "Yashio-shi",
            "name_jp": "八潮市",
            "name_kr": "Yashio-shi"
          },
          {
            "id": 171,
            "name_en": "Fujimi-shi",
            "name_th": "Fujimi-shi",
            "name_jp": "富士見市",
            "name_kr": "Fujimi-shi"
          },
          {
            "id": 172,
            "name_en": "Misato-shi",
            "name_th": "Misato-shi",
            "name_jp": "三郷市",
            "name_kr": "Misato-shi"
          },
          {
            "id": 173,
            "name_en": "Sakado-shi",
            "name_th": "Sakado-shi",
            "name_jp": "坂戸市",
            "name_kr": "Sakado-shi"
          },
          {
            "id": 174,
            "name_en": "Turugashima-shi",
            "name_th": "Turugashima-shi",
            "name_jp": "鶴ヶ島市",
            "name_kr": "Turugashima-shi"
          },
          {
            "id": 175,
            "name_en": "Yoshikawa-shi",
            "name_th": "Yoshikawa-shi",
            "name_jp": "吉川市",
            "name_kr": "Yoshikawa-shi"
          },
          {
            "id": 121,
            "name_en": "Saitama-shi",
            "name_th": "Saitama-shi",
            "name_jp": "さいたま市",
            "name_kr": "Saitama-shi"
          },
          {
            "id": 122,
            "name_en": "Koshigaya-shi",
            "name_th": "Koshigaya-shi",
            "name_jp": "越谷市",
            "name_kr": "Koshigaya-shi"
          },
          {
            "id": 152,
            "name_en": "Saitama-shi Kita-ku",
            "name_th": "Saitama-shi Kita-ku",
            "name_jp": "さいたま市北区",
            "name_kr": "Saitama-shi Kita-ku"
          },
          {
            "id": 153,
            "name_en": "Saitama-shi Omiya-ku",
            "name_th": "Saitama-shi Omiya-ku",
            "name_jp": "さいたま市大宮区",
            "name_kr": "Saitama-shi Omiya-ku"
          }
        ]
      },
      {
        "id": 143,
        "name_en": "Chiba-ken",
        "name_th": "Chiba-ken",
        "name_jp": "千葉県",
        "name_kr": "Chiba-ken",
        "districts": [
          {
            "id": 182,
            "name_en": "Narashino-shi",
            "name_th": "Narashino-shi",
            "name_jp": "習志野市",
            "name_kr": "Narashino-shi"
          },
          {
            "id": 183,
            "name_en": "Kashiwa-shi",
            "name_th": "Kashiwa-shi",
            "name_jp": "柏市",
            "name_kr": "Kashiwa-shi"
          },
          {
            "id": 184,
            "name_en": "Nagareyama-shi",
            "name_th": "Nagareyama-shi",
            "name_jp": "流山市",
            "name_kr": "Nagareyama-shi"
          },
          {
            "id": 185,
            "name_en": "Yachiyo-shi",
            "name_th": "Yachiyo-shi",
            "name_jp": "八千代市",
            "name_kr": "Yachiyo-shi"
          },
          {
            "id": 176,
            "name_en": "Chiba-shi Chuo-ku",
            "name_th": "Chiba-shi Chuo-ku",
            "name_jp": "千葉市中央区",
            "name_kr": "Chiba-shi Chuo-ku"
          },
          {
            "id": 177,
            "name_en": "Chiba-shi Wakaba-ku",
            "name_th": "Chiba-shi Wakaba-ku",
            "name_jp": "千葉市若葉区",
            "name_kr": "Chiba-shi Wakaba-ku"
          },
          {
            "id": 178,
            "name_en": "Chiba-shi Midori-ku",
            "name_th": "Chiba-shi Midori-ku",
            "name_jp": "千葉市緑区",
            "name_kr": "Chiba-shi Midori-ku"
          },
          {
            "id": 179,
            "name_en": "Ichikawa-shi",
            "name_th": "Ichikawa-shi",
            "name_jp": "市川市",
            "name_kr": "Ichikawa-shi"
          },
          {
            "id": 180,
            "name_en": "Funabashi-shi",
            "name_th": "Funabashi-shi",
            "name_jp": "船橋市",
            "name_kr": "Funabashi-shi"
          },
          {
            "id": 181,
            "name_en": "Matsudo-shi",
            "name_th": "Matsudo-shi",
            "name_jp": "松戸市",
            "name_kr": "Matsudo-shi"
          },
          {
            "id": 123,
            "name_en": "Chiba-shi",
            "name_th": "Chiba-shi",
            "name_jp": "千葉市",
            "name_kr": "Chiba-shi"
          },
          {
            "id": 250,
            "name_en": "Machida-shi",
            "name_th": "Machida-shi",
            "name_jp": "野田市",
            "name_kr": "Machida-shi"
          },
          {
            "id": 251,
            "name_en": "Togane-shi",
            "name_th": "Togane-shi",
            "name_jp": "東金市",
            "name_kr": "Togane-shi"
          },
          {
            "id": 252,
            "name_en": "Choseigun Ichinomiya-machi",
            "name_th": "Choseigun Ichinomiya-machi",
            "name_jp": "長生郡一宮町",
            "name_kr": "Choseigun Ichinomiya-machi"
          }
        ]
      },
      {
        "id": 144,
        "name_en": "Kanagawa-ken",
        "name_th": "Kanagawa-ken",
        "name_jp": "神奈川",
        "name_kr": "Kanagawa-ken",
        "districts": [
          {
            "id": 186,
            "name_en": "Search for Cities and Towns",
            "name_th": "Search for Cities and Towns",
            "name_jp": "市区町村を検索",
            "name_kr": "Search for Cities and Towns"
          },
          {
            "id": 187,
            "name_en": "Yokohama-shi Tsurumi-ku",
            "name_th": "Yokohama-shi Tsurumi-ku",
            "name_jp": "横浜市鶴見区",
            "name_kr": "Yokohama-shi Tsurumi-ku"
          },
          {
            "id": 188,
            "name_en": "Yokohama-shi Kanagawa-ku",
            "name_th": "Yokohama-shi Kanagawa-ku",
            "name_jp": "横浜市神奈川区",
            "name_kr": "Yokohama-shi Kanagawa-ku"
          },
          {
            "id": 189,
            "name_en": "Yokohama-shi Nishi-ku",
            "name_th": "Yokohama-shi Nishi-ku",
            "name_jp": "横浜市西区",
            "name_kr": "Yokohama-shi Nishi-ku"
          },
          {
            "id": 190,
            "name_en": "Yokohama-shi Naka-ku",
            "name_th": "Yokohama-shi Naka-ku",
            "name_jp": "横浜市中区",
            "name_kr": "Yokohama-shi Naka-ku"
          },
          {
            "id": 191,
            "name_en": "Yokohama-shi Minami-ku",
            "name_th": "Yokohama-shi Minami-ku",
            "name_jp": "横浜市南区",
            "name_kr": "Yokohama-shi Minami-ku"
          },
          {
            "id": 192,
            "name_en": "Yokohama-shi Isogo-ku",
            "name_th": "Yokohama-shi Isogo-ku",
            "name_jp": "横浜市磯子区",
            "name_kr": "Yokohama-shi Isogo-ku"
          },
          {
            "id": 193,
            "name_en": "Yokohama-shi KIta-ku",
            "name_th": "Yokohama-shi KIta-ku",
            "name_jp": "横浜市港北区",
            "name_kr": "Yokohama-shi KIta-ku"
          },
          {
            "id": 194,
            "name_en": "Yokohama-shi Totsuka-ku",
            "name_th": "Yokohama-shi Totsuka-ku",
            "name_jp": "横浜市戸塚区",
            "name_kr": "Yokohama-shi Totsuka-ku"
          },
          {
            "id": 195,
            "name_en": "Yokohama-shi Minami-ku",
            "name_th": "Yokohama-shi Minami-ku",
            "name_jp": "横浜市港南区",
            "name_kr": "Yokohama-shi Minami-ku"
          },
          {
            "id": 196,
            "name_en": "Yokohama-shi Seya-ku",
            "name_th": "Yokohama-shi Seya-ku",
            "name_jp": "横浜市瀬谷区",
            "name_kr": "Yokohama-shi Seya-ku"
          },
          {
            "id": 197,
            "name_en": "Yokohama-shi Sakae-ku",
            "name_th": "Yokohama-shi Sakae-ku",
            "name_jp": "横浜市栄区",
            "name_kr": "Yokohama-shi Sakae-ku"
          },
          {
            "id": 198,
            "name_en": "Yokohama-shi Aoba-ku",
            "name_th": "Yokohama-shi Aoba-ku",
            "name_jp": "横浜市青葉区",
            "name_kr": "Yokohama-shi Aoba-ku"
          },
          {
            "id": 199,
            "name_en": "Kawasaki-shi Kawasaki-ku",
            "name_th": "Kawasaki-shi Kawasaki-ku",
            "name_jp": "川崎市川崎区",
            "name_kr": "Kawasaki-shi Kawasaki-ku"
          },
          {
            "id": 200,
            "name_en": "Kawasaki-shi Saiwai-ku",
            "name_th": "Kawasaki-shi Saiwai-ku",
            "name_jp": "川崎市幸区",
            "name_kr": "Kawasaki-shi Saiwai-ku"
          },
          {
            "id": 201,
            "name_en": "Kawasaki-shi Nakahara-ku",
            "name_th": "Kawasaki-shi Nakahara-ku",
            "name_jp": "川崎市中原区",
            "name_kr": "Kawasaki-shi Nakahara-ku"
          },
          {
            "id": 202,
            "name_en": "Kawasaki-shi Tama-ku",
            "name_th": "Kawasaki-shi Tama-ku",
            "name_jp": "川崎市多摩区",
            "name_kr": "Kawasaki-shi Tama-ku"
          },
          {
            "id": 203,
            "name_en": "Kawasaki-shi Asao-ku",
            "name_th": "Kawasaki-shi Asao-ku",
            "name_jp": "川崎市麻生区",
            "name_kr": "Kawasaki-shi Asao-ku"
          },
          {
            "id": 204,
            "name_en": "Sagamihara-shi Midori-ku",
            "name_th": "Sagamihara-shi Midori-ku",
            "name_jp": "相模原市緑区",
            "name_kr": "Sagamihara-shi Midori-ku"
          },
          {
            "id": 205,
            "name_en": "Sagamihara-shi Chuo-ku",
            "name_th": "Sagamihara-shi Chuo-ku",
            "name_jp": "相模原市中央区",
            "name_kr": "Sagamihara-shi Chuo-ku"
          },
          {
            "id": 206,
            "name_en": "Sagamihara-shi Minami-ku",
            "name_th": "Sagamihara-shi Minami-ku",
            "name_jp": "相模原市南区",
            "name_kr": "Sagamihara-shi Minami-ku"
          },
          {
            "id": 207,
            "name_en": "Yokosuka-shi",
            "name_th": "Yokosuka-shi",
            "name_jp": "横須賀市",
            "name_kr": "Yokosuka-shi"
          },
          {
            "id": 208,
            "name_en": "Hiratsuka-shi",
            "name_th": "Hiratsuka-shi",
            "name_jp": "平塚市",
            "name_kr": "Hiratsuka-shi"
          }
        ]
      },
      {
        "id": 146,
        "name_en": "Sapporo-shi",
        "name_th": "Sapporo-shi",
        "name_jp": "札幌",
        "name_kr": "Sapporo-shi",
        "districts": [
          {
            "id": 239,
            "name_en": "Chuo-ku",
            "name_th": "Chuo-ku",
            "name_jp": "市中央区",
            "name_kr": "Chuo-ku"
          },
          {
            "id": 240,
            "name_en": "Shiroishi-ku",
            "name_th": "Shiroishi-ku",
            "name_jp": "白石区",
            "name_kr": "Shiroishi-ku"
          },
          {
            "id": 273,
            "name_en": "Sapporo-shi Chuo-ku",
            "name_th": "Sapporo-shi Chuo-ku",
            "name_jp": "札幌市中央区",
            "name_kr": "Sapporo-shi Chuo-ku"
          },
          {
            "id": 274,
            "name_en": "Sapporo-shi Chuo-ku",
            "name_th": "Sapporo-shi Chuo-ku",
            "name_jp": "札幌市中央区",
            "name_kr": "Sapporo-shi Chuo-ku"
          },
          {
            "id": 275,
            "name_en": "Sapporo-shi Chuo-ku",
            "name_th": "Sapporo-shi Chuo-ku",
            "name_jp": "札幌市中央区",
            "name_kr": "Sapporo-shi Chuo-ku"
          },
          {
            "id": 276,
            "name_en": "Sapporo-shi Kita-ku",
            "name_th": "Sapporo-shi Kita-ku",
            "name_jp": "札幌市北区",
            "name_kr": "Sapporo-shi Kita-ku"
          }
        ]
      },
      {
        "id": 147,
        "name_en": "Niigata-shi",
        "name_th": "Niigata-shi",
        "name_jp": "新潟",
        "name_kr": "Niigata-shi",
        "districts": [
          {
            "id": 241,
            "name_en": "Niigata-shi",
            "name_th": "Niigata-shi",
            "name_jp": "新潟",
            "name_kr": "Niigata-shi"
          }
        ]
      },
      {
        "id": 148,
        "name_en": "Nagoya-shi",
        "name_th": "Nagoya-shi",
        "name_jp": "名古屋",
        "name_kr": "Nagoya-shi",
        "districts": [
          {
            "id": 242,
            "name_en": "Naka-ku",
            "name_th": "Naka-ku",
            "name_jp": "市中区",
            "name_kr": "Naka-ku"
          },
          {
            "id": 243,
            "name_en": "KIta-ku",
            "name_th": "KIta-ku",
            "name_jp": "市北区",
            "name_kr": "KIta-ku"
          }
        ]
      },
      {
        "id": 149,
        "name_en": "Osaka-shi",
        "name_th": "Osaka-shi",
        "name_jp": "大阪",
        "name_kr": "Osaka-shi",
        "districts": [
          {
            "id": 244,
            "name_en": "Yodogawa-ku",
            "name_th": "Yodogawa-ku",
            "name_jp": "淀川区",
            "name_kr": "Yodogawa-ku"
          },
          {
            "id": 245,
            "name_en": "Naniwa-ku",
            "name_th": "Naniwa-ku",
            "name_jp": "浪速区",
            "name_kr": "Naniwa-ku"
          }
        ]
      },
      {
        "id": 150,
        "name_en": "Hiroshima-shi",
        "name_th": "Hiroshima-shi",
        "name_jp": "広島",
        "name_kr": "Hiroshima-shi",
        "districts": [
          {
            "id": 246,
            "name_en": "Hiroshima-shi",
            "name_th": "Hiroshima-shi",
            "name_jp": "広島",
            "name_kr": "Hiroshima-shi"
          }
        ]
      },
      {
        "id": 151,
        "name_en": "Fukuoka-shi",
        "name_th": "Fukuoka-shi",
        "name_jp": "福岡",
        "name_kr": "Fukuoka-shi",
        "districts": [
          {
            "id": 247,
            "name_en": "Fukuoka-shi",
            "name_th": "Fukuoka-shi",
            "name_jp": "福岡",
            "name_kr": "Fukuoka-shi"
          },
          {
            "id": 248,
            "name_en": "Kitanyushu-shi",
            "name_th": "Kitanyushu-shi",
            "name_jp": "北九州",
            "name_kr": "Kitanyushu-shi"
          },
          {
            "id": 277,
            "name_en": "Sapporo-shi Chuo-ku",
            "name_th": "Sapporo-shi Chuo-ku",
            "name_jp": "福岡市中央区",
            "name_kr": "Sapporo-shi Chuo-ku"
          }
        ]
      },
      {
        "id": 152,
        "name_en": "Tochigi-ken",
        "name_th": "Tochigi-ken",
        "name_jp": "栃木県",
        "name_kr": "Tochigi-ken",
        "districts": [
          {
            "id": 253,
            "name_en": "Utsunomiya-shi",
            "name_th": "Utsunomiya-shi",
            "name_jp": "宇都宮市",
            "name_kr": "Utsunomiya-shi"
          },
          {
            "id": 254,
            "name_en": "Oyama-shi",
            "name_th": "Oyama-shi",
            "name_jp": "小山市",
            "name_kr": "Oyama-shi"
          },
          {
            "id": 255,
            "name_en": "Tochigi-shi",
            "name_th": "Tochigi-shi",
            "name_jp": "栃木市",
            "name_kr": "Tochigi-shi"
          },
          {
            "id": 256,
            "name_en": "Shimotsuke-shi",
            "name_th": "Shimotsuke-shi",
            "name_jp": "下野市",
            "name_kr": "Shimotsuke-shi"
          },
          {
            "id": 257,
            "name_en": "Sano-shi",
            "name_th": "Sano-shi",
            "name_jp": "佐野市",
            "name_kr": "Sano-shi"
          }
        ]
      },
      {
        "id": 153,
        "name_en": "Ibaraki-ken",
        "name_th": "Ibaraki-ken",
        "name_jp": "茨城県",
        "name_kr": "Ibaraki-ken",
        "districts": [
          {
            "id": 258,
            "name_en": "Tsuchiura-shi",
            "name_th": "Tsuchiura-shi",
            "name_jp": "土浦市",
            "name_kr": "Tsuchiura-shi"
          },
          {
            "id": 259,
            "name_en": "Ushiku-shi",
            "name_th": "Ushiku-shi",
            "name_jp": "牛久市",
            "name_kr": "Ushiku-shi"
          }
        ]
      },
      {
        "id": 154,
        "name_en": "Osaka",
        "name_th": "Osaka",
        "name_jp": "大阪府",
        "name_kr": "Osaka",
        "districts": [
          {
            "id": 260,
            "name_en": "Osaka-shi",
            "name_th": "Osaka-shi",
            "name_jp": "大阪市",
            "name_kr": "Osaka-shi"
          }
        ]
      },
      {
        "id": 155,
        "name_en": "Hyogo-ken",
        "name_th": "Hyogo-ken",
        "name_jp": "兵庫県",
        "name_kr": "Hyogo-ken",
        "districts": [
          {
            "id": 261,
            "name_en": "Himeji-shi",
            "name_th": "Himeji-shi",
            "name_jp": "姫路市",
            "name_kr": "Himeji-shi"
          },
          {
            "id": 278,
            "name_en": "Kakogawa-shi",
            "name_th": "Kakogawa-shi",
            "name_jp": "加古川市",
            "name_kr": "Kakogawa-shi"
          },
          {
            "id": 279,
            "name_en": "Akashi-shi",
            "name_th": "Akashi-shi",
            "name_jp": "明石市",
            "name_kr": "Akashi-shi"
          },
          {
            "id": 280,
            "name_en": "明石市",
            "name_th": "明石市",
            "name_jp": "明石市",
            "name_kr": "明石市"
          }
        ]
      },
      {
        "id": 156,
        "name_en": "Okayama-shi",
        "name_th": "Okayama-shi",
        "name_jp": "岡山県",
        "name_kr": "Okayama-shi",
        "districts": [
          {
            "id": 262,
            "name_en": "Okayama-shi Kita-ku",
            "name_th": "Okayama-shi Kita-ku",
            "name_jp": "岡山市北区",
            "name_kr": "Okayama-shi Kita-ku"
          },
          {
            "id": 263,
            "name_en": "Okayama-shi Naka-ku",
            "name_th": "Okayama-shi Naka-ku",
            "name_jp": "岡山市中区",
            "name_kr": "Okayama-shi Naka-ku"
          },
          {
            "id": 264,
            "name_en": "Okayama-shi Minami-ku",
            "name_th": "Okayama-shi Minami-ku",
            "name_jp": "岡山市南区",
            "name_kr": "Okayama-shi Minami-ku"
          },
          {
            "id": 265,
            "name_en": "Kurashiki-shi",
            "name_th": "Kurashiki-shi",
            "name_jp": "倉敷市",
            "name_kr": "Kurashiki-shi"
          },
          {
            "id": 266,
            "name_en": "Tsuyama-sho",
            "name_th": "Tsuyama-sho",
            "name_jp": "津山市",
            "name_kr": "Tsuyama-sho"
          }
        ]
      },
      {
        "id": 157,
        "name_en": "Kagawa -ken",
        "name_th": "Kagawa -ken",
        "name_jp": "香川県",
        "name_kr": "Kagawa -ken",
        "districts": [
          {
            "id": 267,
            "name_en": "Takamatsu-shi",
            "name_th": "Takamatsu-shi",
            "name_jp": "高松市",
            "name_kr": "Takamatsu-shi"
          }
        ]
      },
      {
        "id": 158,
        "name_en": "Fukuoka-shi",
        "name_th": "Fukuoka-shi",
        "name_jp": "福岡県",
        "name_kr": "Fukuoka-shi",
        "districts": [
          {
            "id": 268,
            "name_en": "Fukuoka-shi Hakata-ku",
            "name_th": "Fukuoka-shi Hakata-ku",
            "name_jp": "福岡市博多区",
            "name_kr": "Fukuoka-shi Hakata-ku"
          }
        ]
      },
      {
        "id": 159,
        "name_en": "Saitama Area",
        "name_th": "Saitama Area",
        "name_jp": "埼玉エリ",
        "name_kr": "Saitama Area",
        "districts": []
      },
      {
        "id": 160,
        "name_en": "Tokyo Area",
        "name_th": "Tokyo Area",
        "name_jp": "東京エリ",
        "name_kr": "Tokyo Area",
        "districts": []
      },
      {
        "id": 161,
        "name_en": "Chiba Area",
        "name_th": "Chiba Area",
        "name_jp": "千葉エリ",
        "name_kr": "Chiba Area",
        "districts": []
      },
      {
        "id": 162,
        "name_en": "Tokyo (Tama Area)",
        "name_th": "Tokyo (Tama Area)",
        "name_jp": "東京",
        "name_kr": "Tokyo (Tama Area)",
        "districts": [
          {
            "id": 269,
            "name_en": "Kokubunji-shi",
            "name_th": "Kokubunji-shi",
            "name_jp": "国分寺市",
            "name_kr": "Kokubunji-shi"
          },
          {
            "id": 270,
            "name_en": "Kunitachi-shi",
            "name_th": "Kunitachi-shi",
            "name_jp": "国立市",
            "name_kr": "Kunitachi-shi"
          },
          {
            "id": 281,
            "name_en": "明石市",
            "name_th": "明石市",
            "name_jp": "荒川区(",
            "name_kr": "明石市"
          },
          {
            "id": 282,
            "name_en": "Komae-shi",
            "name_th": "Komae-shi",
            "name_jp": "狛江市",
            "name_kr": "Komae-shi"
          },
          {
            "id": 283,
            "name_en": "Inagi-shi",
            "name_th": "Inagi-shi",
            "name_jp": "稲城市",
            "name_kr": "Inagi-shi"
          },
          {
            "id": 284,
            "name_en": "Fussa-shi",
            "name_th": "Fussa-shi",
            "name_jp": "福生市",
            "name_kr": "Fussa-shi"
          },
          {
            "id": 285,
            "name_en": "Musashimurayama-shi",
            "name_th": "Musashimurayama-shi",
            "name_jp": "武蔵村山市",
            "name_kr": "Musashimurayama-shi"
          },
          {
            "id": 286,
            "name_en": "Akishima-shi",
            "name_th": "Akishima-shi",
            "name_jp": "昭島市",
            "name_kr": "Akishima-shi"
          },
          {
            "id": 287,
            "name_en": "Nishitama-gun Mizuho-machi",
            "name_th": "Nishitama-gun Mizuho-machi",
            "name_jp": "西多摩郡瑞穂町",
            "name_kr": "Nishitama-gun Mizuho-machi"
          },
          {
            "id": 288,
            "name_en": "Akiruno-shi",
            "name_th": "Akiruno-shi",
            "name_jp": "あきる野市",
            "name_kr": "Akiruno-shi"
          },
          {
            "id": 289,
            "name_en": "Chofu-shi",
            "name_th": "Chofu-shi",
            "name_jp": "調布市",
            "name_kr": "Chofu-shi"
          },
          {
            "id": 290,
            "name_en": "Higashimurayama-shi",
            "name_th": "Higashimurayama-shi",
            "name_jp": "東村山市",
            "name_kr": "Higashimurayama-shi"
          }
        ]
      },
      {
        "id": 163,
        "name_en": "Yokohama-shi",
        "name_th": "Yokohama-shi",
        "name_jp": "横浜",
        "name_kr": "Yokohama-shi",
        "districts": [
          {
            "id": 320,
            "name_en": "Nishi-ku",
            "name_th": "Nishi-ku",
            "name_jp": "西区",
            "name_kr": "Nishi-ku"
          },
          {
            "id": 315,
            "name_en": "Naka-ku",
            "name_th": "Naka-ku",
            "name_jp": "中区",
            "name_kr": "Naka-ku"
          },
          {
            "id": 316,
            "name_en": "Izumi-ku",
            "name_th": "Izumi-ku",
            "name_jp": "泉区",
            "name_kr": "Izumi-ku"
          },
          {
            "id": 317,
            "name_en": "Tsuzuki-ku",
            "name_th": "Tsuzuki-ku",
            "name_jp": "都筑区",
            "name_kr": "Tsuzuki-ku"
          },
          {
            "id": 318,
            "name_en": "Minami-ku",
            "name_th": "Minami-ku",
            "name_jp": "南区",
            "name_kr": "Minami-ku"
          },
          {
            "id": 319,
            "name_en": "Kanazawa-ku",
            "name_th": "Kanazawa-ku",
            "name_jp": "金沢区",
            "name_kr": "Kanazawa-ku"
          },
          {
            "id": 321,
            "name_en": "Konan-ku",
            "name_th": "Konan-ku",
            "name_jp": "港南区",
            "name_kr": "Konan-ku"
          },
          {
            "id": 322,
            "name_en": "Tsurumi-ku",
            "name_th": "Tsurumi-ku",
            "name_jp": "鶴見区",
            "name_kr": "Tsurumi-ku"
          },
          {
            "id": 323,
            "name_en": "Kanagawa-ku",
            "name_th": "Kanagawa-ku",
            "name_jp": "神奈川区",
            "name_kr": "Kanagawa-ku"
          },
          {
            "id": 324,
            "name_en": "Aoba-ku",
            "name_th": "Aoba-ku",
            "name_jp": "青葉区",
            "name_kr": "Aoba-ku"
          },
          {
            "id": 325,
            "name_en": "Kohoku-ku",
            "name_th": "Kohoku-ku",
            "name_jp": "港北区",
            "name_kr": "Kohoku-ku"
          },
          {
            "id": 326,
            "name_en": "Totsuka-ku",
            "name_th": "Totsuka-ku",
            "name_jp": "戸塚区",
            "name_kr": "Totsuka-ku"
          },
          {
            "id": 327,
            "name_en": "Sakae-ku",
            "name_th": "Sakae-ku",
            "name_jp": "栄区",
            "name_kr": "Sakae-ku"
          },
          {
            "id": 328,
            "name_en": "Asahi-ku",
            "name_th": "Asahi-ku",
            "name_jp": "旭区",
            "name_kr": "Asahi-ku"
          },
          {
            "id": 329,
            "name_en": "Seya-ku",
            "name_th": "Seya-ku",
            "name_jp": "瀬谷区",
            "name_kr": "Seya-ku"
          },
          {
            "id": 330,
            "name_en": "Hodogaya-ku",
            "name_th": "Hodogaya-ku",
            "name_jp": "保土ケ谷区",
            "name_kr": "Hodogaya-ku"
          },
          {
            "id": 331,
            "name_en": "Isogo-ku",
            "name_th": "Isogo-ku",
            "name_jp": "磯子区",
            "name_kr": "Isogo-ku"
          },
          {
            "id": 332,
            "name_en": "Takatsu-ku",
            "name_th": "Takatsu-ku",
            "name_jp": "高津区",
            "name_kr": "Takatsu-ku"
          },
          {
            "id": 333,
            "name_en": "Saiwai-ku",
            "name_th": "Saiwai-ku",
            "name_jp": "幸区",
            "name_kr": "Saiwai-ku"
          },
          {
            "id": 334,
            "name_en": "Saiwai-kui",
            "name_th": "Saiwai-kui",
            "name_jp": "中原区",
            "name_kr": "Saiwai-kui"
          },
          {
            "id": 335,
            "name_en": "Tama-ku",
            "name_th": "Tama-ku",
            "name_jp": "多摩区",
            "name_kr": "Tama-ku"
          },
          {
            "id": 336,
            "name_en": "Asao-ku",
            "name_th": "Asao-ku",
            "name_jp": "麻生区",
            "name_kr": "Asao-ku"
          },
          {
            "id": 337,
            "name_en": "MIyamae-ku",
            "name_th": "MIyamae-ku",
            "name_jp": "宮前区",
            "name_kr": "MIyamae-ku"
          },
          {
            "id": 338,
            "name_en": "Kawasaki-ku",
            "name_th": "Kawasaki-ku",
            "name_jp": "川崎区",
            "name_kr": "Kawasaki-ku"
          },
          {
            "id": 339,
            "name_en": "Zama-shi",
            "name_th": "Zama-shi",
            "name_jp": "座間市",
            "name_kr": "Zama-shi"
          },
          {
            "id": 340,
            "name_en": "Ayase-shi",
            "name_th": "Ayase-shi",
            "name_jp": "綾瀬市",
            "name_kr": "Ayase-shi"
          },
          {
            "id": 341,
            "name_en": "Ebina-shi",
            "name_th": "Ebina-shi",
            "name_jp": "海老名市",
            "name_kr": "Ebina-shi"
          },
          {
            "id": 342,
            "name_en": "Ashigarakami-gun Nakai-machi",
            "name_th": "Ashigarakami-gun Nakai-machi",
            "name_jp": "足柄上郡中井町",
            "name_kr": "Ashigarakami-gun Nakai-machi"
          },
          {
            "id": 343,
            "name_en": "Atsugi-shi",
            "name_th": "Atsugi-shi",
            "name_jp": "厚木市",
            "name_kr": "Atsugi-shi"
          },
          {
            "id": 344,
            "name_en": "Hadano-shi",
            "name_th": "Hadano-shi",
            "name_jp": "秦野市",
            "name_kr": "Hadano-shi"
          },
          {
            "id": 345,
            "name_en": "Odawara-shi",
            "name_th": "Odawara-shi",
            "name_jp": "小田原市",
            "name_kr": "Odawara-shi"
          },
          {
            "id": 346,
            "name_en": "Ashigarakami-gun Kaisei-machi",
            "name_th": "Ashigarakami-gun Kaisei-machi",
            "name_jp": "足柄上郡開成町",
            "name_kr": "Ashigarakami-gun Kaisei-machi"
          },
          {
            "id": 347,
            "name_en": "Aiko-gun Aikawa-machi",
            "name_th": "Aiko-gun Aikawa-machi",
            "name_jp": "愛甲郡愛川町",
            "name_kr": "Aiko-gun Aikawa-machi"
          },
          {
            "id": 348,
            "name_en": "Miura-gun Hayama-machi",
            "name_th": "Miura-gun Hayama-machi",
            "name_jp": "三浦郡葉山町",
            "name_kr": "Miura-gun Hayama-machi"
          },
          {
            "id": 349,
            "name_en": "Koza-gun Samukawa-machi",
            "name_th": "Koza-gun Samukawa-machi",
            "name_jp": "高座郡寒川町",
            "name_kr": "Koza-gun Samukawa-machi"
          },
          {
            "id": 350,
            "name_en": "Isehara-shi",
            "name_th": "Isehara-shi",
            "name_jp": "伊勢原市",
            "name_kr": "Isehara-shi"
          },
          {
            "id": 351,
            "name_en": "Yamoto-shi",
            "name_th": "Yamoto-shi",
            "name_jp": "大和市",
            "name_kr": "Yamoto-shi"
          },
          {
            "id": 352,
            "name_en": "Aiko-gun Aikawa-machi",
            "name_th": "Aiko-gun Aikawa-machi",
            "name_jp": "愛甲郡愛川町",
            "name_kr": "Aiko-gun Aikawa-machi"
          },
          {
            "id": 353,
            "name_en": "Zushi-shi",
            "name_th": "Zushi-shi",
            "name_jp": "逗子市",
            "name_kr": "Zushi-shi"
          }
        ]
      },
      {
        "id": 165,
        "name_en": "帯広市",
        "name_th": "帯広市",
        "name_jp": "帯広市",
        "name_kr": "帯広市",
        "districts": [
          {
            "id": 355,
            "name_en": "北海道",
            "name_th": "北海道",
            "name_jp": "北海道",
            "name_kr": "北海道"
          }
        ]
      },
      {
        "id": 166,
        "name_en": "横浜市中区",
        "name_th": "横浜市中区",
        "name_jp": "横浜市中区",
        "name_kr": "横浜市中区",
        "districts": [
          {
            "id": 357,
            "name_en": "神奈川県",
            "name_th": "神奈川県",
            "name_jp": "神奈川県",
            "name_kr": "神奈川県"
          }
        ]
      },
      {
        "id": 167,
        "name_en": "さいたま市桜区",
        "name_th": "さいたま市桜区",
        "name_jp": "さいたま市桜区",
        "name_kr": "さいたま市桜区",
        "districts": [
          {
            "id": 358,
            "name_en": "埼玉県",
            "name_th": "埼玉県",
            "name_jp": "埼玉県",
            "name_kr": "埼玉県"
          }
        ]
      },
      {
        "id": 168,
        "name_en": "志木市",
        "name_th": "志木市",
        "name_jp": "志木市",
        "name_kr": "志木市",
        "districts": []
      },
      {
        "id": 169,
        "name_en": "さいたま市緑区",
        "name_th": "さいたま市緑区",
        "name_jp": "さいたま市緑区",
        "name_kr": "さいたま市緑区",
        "districts": []
      },
      {
        "id": 170,
        "name_en": "戸田市",
        "name_th": "戸田市",
        "name_jp": "戸田市",
        "name_kr": "戸田市",
        "districts": []
      },
      {
        "id": 171,
        "name_en": "富士見市",
        "name_th": "富士見市",
        "name_jp": "富士見市",
        "name_kr": "富士見市",
        "districts": []
      },
      {
        "id": 172,
        "name_en": "川口市",
        "name_th": "川口市",
        "name_jp": "川口市",
        "name_kr": "川口市",
        "districts": []
      },
      {
        "id": 173,
        "name_en": "所沢市",
        "name_th": "所沢市",
        "name_jp": "所沢市",
        "name_kr": "所沢市",
        "districts": []
      },
      {
        "id": 174,
        "name_en": "西東京市",
        "name_th": "西東京市",
        "name_jp": "西東京市",
        "name_kr": "西東京市",
        "districts": []
      },
      {
        "id": 175,
        "name_en": "日進市",
        "name_th": "日進市",
        "name_jp": "日進市",
        "name_kr": "日進市",
        "districts": [
          {
            "id": 359,
            "name_en": "愛知県",
            "name_th": "愛知県",
            "name_jp": "愛知県",
            "name_kr": "愛知県"
          }
        ]
      },
      {
        "id": 176,
        "name_en": "尾張旭市",
        "name_th": "尾張旭市",
        "name_jp": "尾張旭市",
        "name_kr": "尾張旭市",
        "districts": []
      },
      {
        "id": 177,
        "name_en": "八王子市",
        "name_th": "八王子市",
        "name_jp": "八王子市",
        "name_kr": "八王子市",
        "districts": []
      },
      {
        "id": 178,
        "name_en": "札幌市南区",
        "name_th": "札幌市南区",
        "name_jp": "札幌市南区",
        "name_kr": "札幌市南区",
        "districts": []
      },
      {
        "id": 179,
        "name_en": "札幌市豊平区",
        "name_th": "札幌市豊平区",
        "name_jp": "札幌市豊平区",
        "name_kr": "札幌市豊平区",
        "districts": []
      },
      {
        "id": 180,
        "name_en": "札幌市中央区",
        "name_th": "札幌市中央区",
        "name_jp": "札幌市中央区",
        "name_kr": "札幌市中央区",
        "districts": []
      },
      {
        "id": 181,
        "name_en": "北葛飾郡杉戸町",
        "name_th": "北葛飾郡杉戸町",
        "name_jp": "北葛飾郡杉戸町",
        "name_kr": "北葛飾郡杉戸町",
        "districts": []
      },
      {
        "id": 182,
        "name_en": "上尾市",
        "name_th": "上尾市",
        "name_jp": "上尾市",
        "name_kr": "上尾市",
        "districts": []
      },
      {
        "id": 183,
        "name_en": "松戸市",
        "name_th": "松戸市",
        "name_jp": "松戸市",
        "name_kr": "松戸市",
        "districts": [
          {
            "id": 360,
            "name_en": "千葉県",
            "name_th": "千葉県",
            "name_jp": "千葉県",
            "name_kr": "千葉県"
          }
        ]
      },
      {
        "id": 184,
        "name_en": "春日部市",
        "name_th": "春日部市",
        "name_jp": "春日部市",
        "name_kr": "春日部市",
        "districts": []
      },
      {
        "id": 185,
        "name_en": "三郷市",
        "name_th": "三郷市",
        "name_jp": "三郷市",
        "name_kr": "三郷市",
        "districts": []
      },
      {
        "id": 186,
        "name_en": "幸手市",
        "name_th": "幸手市",
        "name_jp": "幸手市",
        "name_kr": "幸手市",
        "districts": []
      },
      {
        "id": 187,
        "name_en": "久喜市",
        "name_th": "久喜市",
        "name_jp": "久喜市",
        "name_kr": "久喜市",
        "districts": []
      },
      {
        "id": 188,
        "name_en": "吉川市",
        "name_th": "吉川市",
        "name_jp": "吉川市",
        "name_kr": "吉川市",
        "districts": []
      },
      {
        "id": 189,
        "name_en": "加須市",
        "name_th": "加須市",
        "name_jp": "加須市",
        "name_kr": "加須市",
        "districts": []
      },
      {
        "id": 190,
        "name_en": "北足立郡伊奈町",
        "name_th": "北足立郡伊奈町",
        "name_jp": "北足立郡伊奈町",
        "name_kr": "北足立郡伊奈町",
        "districts": []
      },
      {
        "id": 191,
        "name_en": "さいたま市北区",
        "name_th": "さいたま市北区",
        "name_jp": "さいたま市北区",
        "name_kr": "さいたま市北区",
        "districts": []
      },
      {
        "id": 192,
        "name_en": "さいたま市南区",
        "name_th": "さいたま市南区",
        "name_jp": "さいたま市南区",
        "name_kr": "さいたま市南区",
        "districts": []
      },
      {
        "id": 193,
        "name_en": "さいたま市大宮区",
        "name_th": "さいたま市大宮区",
        "name_jp": "さいたま市大宮区",
        "name_kr": "さいたま市大宮区",
        "districts": []
      },
      {
        "id": 194,
        "name_en": "さいたま市西区",
        "name_th": "さいたま市西区",
        "name_jp": "さいたま市西区",
        "name_kr": "さいたま市西区",
        "districts": []
      },
      {
        "id": 195,
        "name_en": "さいたま市見沼区",
        "name_th": "さいたま市見沼区",
        "name_jp": "さいたま市見沼区",
        "name_kr": "さいたま市見沼区",
        "districts": []
      },
      {
        "id": 196,
        "name_en": "さいたま市岩槻区",
        "name_th": "さいたま市岩槻区",
        "name_jp": "さいたま市岩槻区",
        "name_kr": "さいたま市岩槻区",
        "districts": []
      },
      {
        "id": 197,
        "name_en": "札幌市東区",
        "name_th": "札幌市東区",
        "name_jp": "札幌市東区",
        "name_kr": "札幌市東区",
        "districts": []
      },
      {
        "id": 198,
        "name_en": "真岡市",
        "name_th": "真岡市",
        "name_jp": "真岡市",
        "name_kr": "真岡市",
        "districts": [
          {
            "id": 361,
            "name_en": "栃木県",
            "name_th": "栃木県",
            "name_jp": "栃木県",
            "name_kr": "栃木県"
          }
        ]
      },
      {
        "id": 199,
        "name_en": "千葉市緑区",
        "name_th": "千葉市緑区",
        "name_jp": "千葉市緑区",
        "name_kr": "千葉市緑区",
        "districts": []
      },
      {
        "id": 200,
        "name_en": "千葉市若葉区",
        "name_th": "千葉市若葉区",
        "name_jp": "千葉市若葉区",
        "name_kr": "千葉市若葉区",
        "districts": []
      },
      {
        "id": 201,
        "name_en": "千葉市稲毛区",
        "name_th": "千葉市稲毛区",
        "name_jp": "千葉市稲毛区",
        "name_kr": "千葉市稲毛区",
        "districts": []
      },
      {
        "id": 202,
        "name_en": "千葉市花見川区",
        "name_th": "千葉市花見川区",
        "name_jp": "千葉市花見川区",
        "name_kr": "千葉市花見川区",
        "districts": []
      },
      {
        "id": 203,
        "name_en": "木更津市",
        "name_th": "木更津市",
        "name_jp": "木更津市",
        "name_kr": "木更津市",
        "districts": []
      },
      {
        "id": 204,
        "name_en": "平塚市",
        "name_th": "平塚市",
        "name_jp": "平塚市",
        "name_kr": "平塚市",
        "districts": []
      },
      {
        "id": 205,
        "name_en": "横浜市泉区",
        "name_th": "横浜市泉区",
        "name_jp": "横浜市泉区",
        "name_kr": "横浜市泉区",
        "districts": []
      },
      {
        "id": 206,
        "name_en": "小田原市",
        "name_th": "小田原市",
        "name_jp": "小田原市",
        "name_kr": "小田原市",
        "districts": []
      },
      {
        "id": 207,
        "name_en": "秦野市",
        "name_th": "秦野市",
        "name_jp": "秦野市",
        "name_kr": "秦野市",
        "districts": []
      },
      {
        "id": 208,
        "name_en": "川崎市多摩区",
        "name_th": "川崎市多摩区",
        "name_jp": "川崎市多摩区",
        "name_kr": "川崎市多摩区",
        "districts": []
      },
      {
        "id": 209,
        "name_en": "広島市佐伯区",
        "name_th": "広島市佐伯区",
        "name_jp": "広島市佐伯区",
        "name_kr": "広島市佐伯区",
        "districts": [
          {
            "id": 362,
            "name_en": "広島県",
            "name_th": "広島県",
            "name_jp": "広島県",
            "name_kr": "広島県"
          }
        ]
      },
      {
        "id": 210,
        "name_en": "広島市安佐南区",
        "name_th": "広島市安佐南区",
        "name_jp": "広島市安佐南区",
        "name_kr": "広島市安佐南区",
        "districts": []
      },
      {
        "id": 211,
        "name_en": "廿日市市",
        "name_th": "廿日市市",
        "name_jp": "廿日市市",
        "name_kr": "廿日市市",
        "districts": []
      },
      {
        "id": 212,
        "name_en": "安芸郡海田町",
        "name_th": "安芸郡海田町",
        "name_jp": "安芸郡海田町",
        "name_kr": "安芸郡海田町",
        "districts": []
      },
      {
        "id": 213,
        "name_en": "呉市",
        "name_th": "呉市",
        "name_jp": "呉市",
        "name_kr": "呉市",
        "districts": []
      },
      {
        "id": 214,
        "name_en": "広島市西区",
        "name_th": "広島市西区",
        "name_jp": "広島市西区",
        "name_kr": "広島市西区",
        "districts": []
      },
      {
        "id": 215,
        "name_en": "東広島市",
        "name_th": "東広島市",
        "name_jp": "東広島市",
        "name_kr": "東広島市",
        "districts": []
      },
      {
        "id": 216,
        "name_en": "江田島市",
        "name_th": "江田島市",
        "name_jp": "江田島市",
        "name_kr": "江田島市",
        "districts": []
      },
      {
        "id": 217,
        "name_en": "広島市中区",
        "name_th": "広島市中区",
        "name_jp": "広島市中区",
        "name_kr": "広島市中区",
        "districts": []
      },
      {
        "id": 218,
        "name_en": "広島市東区",
        "name_th": "広島市東区",
        "name_jp": "広島市東区",
        "name_kr": "広島市東区",
        "districts": []
      },
      {
        "id": 219,
        "name_en": "広島市南区",
        "name_th": "広島市南区",
        "name_jp": "広島市南区",
        "name_kr": "広島市南区",
        "districts": []
      },
      {
        "id": 220,
        "name_en": "文京区",
        "name_th": "文京区",
        "name_jp": "文京区",
        "name_kr": "文京区",
        "districts": []
      },
      {
        "id": 221,
        "name_en": "入間郡三芳町",
        "name_th": "入間郡三芳町",
        "name_jp": "入間郡三芳町",
        "name_kr": "入間郡三芳町",
        "districts": []
      },
      {
        "id": 222,
        "name_en": "ふじみ野市",
        "name_th": "ふじみ野市",
        "name_jp": "ふじみ野市",
        "name_kr": "ふじみ野市",
        "districts": []
      },
      {
        "id": 223,
        "name_en": "和光市",
        "name_th": "和光市",
        "name_jp": "和光市",
        "name_kr": "和光市",
        "districts": []
      },
      {
        "id": 224,
        "name_en": "新座市",
        "name_th": "新座市",
        "name_jp": "新座市",
        "name_kr": "新座市",
        "districts": []
      },
      {
        "id": 225,
        "name_en": "朝霞市",
        "name_th": "朝霞市",
        "name_jp": "朝霞市",
        "name_kr": "朝霞市",
        "districts": []
      },
      {
        "id": 226,
        "name_en": "川越市",
        "name_th": "川越市",
        "name_jp": "川越市",
        "name_kr": "川越市",
        "districts": []
      },
      {
        "id": 227,
        "name_en": "鶴ヶ島市",
        "name_th": "鶴ヶ島市",
        "name_jp": "鶴ヶ島市",
        "name_kr": "鶴ヶ島市",
        "districts": []
      },
      {
        "id": 228,
        "name_en": "坂戸市",
        "name_th": "坂戸市",
        "name_jp": "坂戸市",
        "name_kr": "坂戸市",
        "districts": []
      },
      {
        "id": 229,
        "name_en": "川崎市高津区",
        "name_th": "川崎市高津区",
        "name_jp": "川崎市高津区",
        "name_kr": "川崎市高津区",
        "districts": []
      },
      {
        "id": 230,
        "name_en": "荒川区",
        "name_th": "荒川区",
        "name_jp": "荒川区",
        "name_kr": "荒川区",
        "districts": []
      },
      {
        "id": 231,
        "name_en": "中央区",
        "name_th": "中央区",
        "name_jp": "中央区",
        "name_kr": "中央区",
        "districts": []
      },
      {
        "id": 232,
        "name_en": "横浜市都筑区",
        "name_th": "横浜市都筑区",
        "name_jp": "横浜市都筑区",
        "name_kr": "横浜市都筑区",
        "districts": []
      },
      {
        "id": 233,
        "name_en": "台東区",
        "name_th": "台東区",
        "name_jp": "台東区",
        "name_kr": "台東区",
        "districts": []
      },
      {
        "id": 234,
        "name_en": "君津市",
        "name_th": "君津市",
        "name_jp": "君津市",
        "name_kr": "君津市",
        "districts": []
      },
      {
        "id": 235,
        "name_en": "伊丹市",
        "name_th": "伊丹市",
        "name_jp": "伊丹市",
        "name_kr": "伊丹市",
        "districts": [
          {
            "id": 363,
            "name_en": "兵庫県",
            "name_th": "兵庫県",
            "name_jp": "兵庫県",
            "name_kr": "兵庫県"
          }
        ]
      },
      {
        "id": 236,
        "name_en": "神戸市北区",
        "name_th": "神戸市北区",
        "name_jp": "神戸市北区",
        "name_kr": "神戸市北区",
        "districts": []
      },
      {
        "id": 237,
        "name_en": "明石市",
        "name_th": "明石市",
        "name_jp": "明石市",
        "name_kr": "明石市",
        "districts": []
      },
      {
        "id": 238,
        "name_en": "千代田区",
        "name_th": "千代田区",
        "name_jp": "千代田区",
        "name_kr": "千代田区",
        "districts": []
      },
      {
        "id": 239,
        "name_en": "茂原市",
        "name_th": "茂原市",
        "name_jp": "茂原市",
        "name_kr": "茂原市",
        "districts": []
      },
      {
        "id": 240,
        "name_en": "相模原市緑区",
        "name_th": "相模原市緑区",
        "name_jp": "相模原市緑区",
        "name_kr": "相模原市緑区",
        "districts": []
      },
      {
        "id": 241,
        "name_en": "相模原市中央区",
        "name_th": "相模原市中央区",
        "name_jp": "相模原市中央区",
        "name_kr": "相模原市中央区",
        "districts": []
      },
      {
        "id": 242,
        "name_en": "相模原市南区",
        "name_th": "相模原市南区",
        "name_jp": "相模原市南区",
        "name_kr": "相模原市南区",
        "districts": []
      },
      {
        "id": 243,
        "name_en": "大和市",
        "name_th": "大和市",
        "name_jp": "大和市",
        "name_kr": "大和市",
        "districts": []
      },
      {
        "id": 244,
        "name_en": "厚木市",
        "name_th": "厚木市",
        "name_jp": "厚木市",
        "name_kr": "厚木市",
        "districts": []
      },
      {
        "id": 245,
        "name_en": "横浜市戸塚区",
        "name_th": "横浜市戸塚区",
        "name_jp": "横浜市戸塚区",
        "name_kr": "横浜市戸塚区",
        "districts": []
      },
      {
        "id": 246,
        "name_en": "福岡市早良区",
        "name_th": "福岡市早良区",
        "name_jp": "福岡市早良区",
        "name_kr": "福岡市早良区",
        "districts": []
      },
      {
        "id": 247,
        "name_en": "福岡市中央区",
        "name_th": "福岡市中央区",
        "name_jp": "福岡市中央区",
        "name_kr": "福岡市中央区",
        "districts": []
      },
      {
        "id": 248,
        "name_en": "東金市",
        "name_th": "東金市",
        "name_jp": "東金市",
        "name_kr": "東金市",
        "districts": []
      },
      {
        "id": 249,
        "name_en": "高松市",
        "name_th": "高松市",
        "name_jp": "高松市",
        "name_kr": "高松市",
        "districts": [
          {
            "id": 364,
            "name_en": "香川県",
            "name_th": "香川県",
            "name_jp": "香川県",
            "name_kr": "香川県"
          }
        ]
      },
      {
        "id": 250,
        "name_en": "大阪市北区",
        "name_th": "大阪市北区",
        "name_jp": "大阪市北区",
        "name_kr": "大阪市北区",
        "districts": [
          {
            "id": 365,
            "name_en": "大阪府",
            "name_th": "大阪府",
            "name_jp": "大阪府",
            "name_kr": "大阪府"
          }
        ]
      },
      {
        "id": 251,
        "name_en": "川崎市宮前区",
        "name_th": "川崎市宮前区",
        "name_jp": "川崎市宮前区",
        "name_kr": "川崎市宮前区",
        "districts": []
      },
      {
        "id": 252,
        "name_en": "福岡市南区",
        "name_th": "福岡市南区",
        "name_jp": "福岡市南区",
        "name_kr": "福岡市南区",
        "districts": []
      },
      {
        "id": 253,
        "name_en": "春日市",
        "name_th": "春日市",
        "name_jp": "春日市",
        "name_kr": "春日市",
        "districts": []
      },
      {
        "id": 254,
        "name_en": "福岡市西区",
        "name_th": "福岡市西区",
        "name_jp": "福岡市西区",
        "name_kr": "福岡市西区",
        "districts": []
      },
      {
        "id": 255,
        "name_en": "福岡市城南区",
        "name_th": "福岡市城南区",
        "name_jp": "福岡市城南区",
        "name_kr": "福岡市城南区",
        "districts": []
      },
      {
        "id": 256,
        "name_en": "福岡市博多区",
        "name_th": "福岡市博多区",
        "name_jp": "福岡市博多区",
        "name_kr": "福岡市博多区",
        "districts": []
      },
      {
        "id": 257,
        "name_en": "福岡市東区",
        "name_th": "福岡市東区",
        "name_jp": "福岡市東区",
        "name_kr": "福岡市東区",
        "districts": []
      },
      {
        "id": 258,
        "name_en": "大阪市中央区",
        "name_th": "大阪市中央区",
        "name_jp": "大阪市中央区",
        "name_kr": "大阪市中央区",
        "districts": []
      },
      {
        "id": 259,
        "name_en": "東大阪市",
        "name_th": "東大阪市",
        "name_jp": "東大阪市",
        "name_kr": "東大阪市",
        "districts": []
      },
      {
        "id": 260,
        "name_en": "門真市",
        "name_th": "門真市",
        "name_jp": "門真市",
        "name_kr": "門真市",
        "districts": []
      },
      {
        "id": 261,
        "name_en": "八尾市",
        "name_th": "八尾市",
        "name_jp": "八尾市",
        "name_kr": "八尾市",
        "districts": []
      },
      {
        "id": 262,
        "name_en": "四條畷市",
        "name_th": "四條畷市",
        "name_jp": "四條畷市",
        "name_kr": "四條畷市",
        "districts": []
      },
      {
        "id": 263,
        "name_en": "枚方市",
        "name_th": "枚方市",
        "name_jp": "枚方市",
        "name_kr": "枚方市",
        "districts": []
      },
      {
        "id": 264,
        "name_en": "駿東郡長泉町",
        "name_th": "駿東郡長泉町",
        "name_jp": "駿東郡長泉町",
        "name_kr": "駿東郡長泉町",
        "districts": [
          {
            "id": 366,
            "name_en": "静岡県",
            "name_th": "静岡県",
            "name_jp": "静岡県",
            "name_kr": "静岡県"
          }
        ]
      },
      {
        "id": 265,
        "name_en": "豊中市",
        "name_th": "豊中市",
        "name_jp": "豊中市",
        "name_kr": "豊中市",
        "districts": []
      },
      {
        "id": 266,
        "name_en": "大阪市淀川区",
        "name_th": "大阪市淀川区",
        "name_jp": "大阪市淀川区",
        "name_kr": "大阪市淀川区",
        "districts": []
      },
      {
        "id": 267,
        "name_en": "佐世保市",
        "name_th": "佐世保市",
        "name_jp": "佐世保市",
        "name_kr": "佐世保市",
        "districts": [
          {
            "id": 367,
            "name_en": "長崎県",
            "name_th": "長崎県",
            "name_jp": "長崎県",
            "name_kr": "長崎県"
          }
        ]
      },
      {
        "id": 268,
        "name_en": "横浜市旭区",
        "name_th": "横浜市旭区",
        "name_jp": "横浜市旭区",
        "name_kr": "横浜市旭区",
        "districts": []
      },
      {
        "id": 269,
        "name_en": "横浜市青葉区",
        "name_th": "横浜市青葉区",
        "name_jp": "横浜市青葉区",
        "name_kr": "横浜市青葉区",
        "districts": []
      },
      {
        "id": 270,
        "name_en": "横浜市瀬谷区",
        "name_th": "横浜市瀬谷区",
        "name_jp": "横浜市瀬谷区",
        "name_kr": "横浜市瀬谷区",
        "districts": []
      },
      {
        "id": 271,
        "name_en": "川崎市中原区",
        "name_th": "川崎市中原区",
        "name_jp": "川崎市中原区",
        "name_kr": "川崎市中原区",
        "districts": []
      },
      {
        "id": 272,
        "name_en": "横浜市南区",
        "name_th": "横浜市南区",
        "name_jp": "横浜市南区",
        "name_kr": "横浜市南区",
        "districts": []
      },
      {
        "id": 273,
        "name_en": "横浜市神奈川区",
        "name_th": "横浜市神奈川区",
        "name_jp": "横浜市神奈川区",
        "name_kr": "横浜市神奈川区",
        "districts": []
      },
      {
        "id": 274,
        "name_en": "横浜市港北区",
        "name_th": "横浜市港北区",
        "name_jp": "横浜市港北区",
        "name_kr": "横浜市港北区",
        "districts": []
      },
      {
        "id": 275,
        "name_en": "横浜市緑区",
        "name_th": "横浜市緑区",
        "name_jp": "横浜市緑区",
        "name_kr": "横浜市緑区",
        "districts": []
      },
      {
        "id": 276,
        "name_en": "横浜市鶴見区",
        "name_th": "横浜市鶴見区",
        "name_jp": "横浜市鶴見区",
        "name_kr": "横浜市鶴見区",
        "districts": []
      },
      {
        "id": 277,
        "name_en": "新宿区",
        "name_th": "新宿区",
        "name_jp": "新宿区",
        "name_kr": "新宿区",
        "districts": []
      },
      {
        "id": 278,
        "name_en": "品川区",
        "name_th": "品川区",
        "name_jp": "品川区",
        "name_kr": "品川区",
        "districts": []
      },
      {
        "id": 279,
        "name_en": "山武郡九十九里町",
        "name_th": "山武郡九十九里町",
        "name_jp": "山武郡九十九里町",
        "name_kr": "山武郡九十九里町",
        "districts": []
      },
      {
        "id": 280,
        "name_en": "葛飾区",
        "name_th": "葛飾区",
        "name_jp": "葛飾区",
        "name_kr": "葛飾区",
        "districts": []
      },
      {
        "id": 281,
        "name_en": "府中市",
        "name_th": "府中市",
        "name_jp": "府中市",
        "name_kr": "府中市",
        "districts": []
      },
      {
        "id": 282,
        "name_en": "小城市",
        "name_th": "小城市",
        "name_jp": "小城市",
        "name_kr": "小城市",
        "districts": [
          {
            "id": 368,
            "name_en": "佐賀県",
            "name_th": "佐賀県",
            "name_jp": "佐賀県",
            "name_kr": "佐賀県"
          }
        ]
      },
      {
        "id": 283,
        "name_en": "鳥栖市",
        "name_th": "鳥栖市",
        "name_jp": "鳥栖市",
        "name_kr": "鳥栖市",
        "districts": []
      },
      {
        "id": 284,
        "name_en": "佐賀市",
        "name_th": "佐賀市",
        "name_jp": "佐賀市",
        "name_kr": "佐賀市",
        "districts": []
      },
      {
        "id": 285,
        "name_en": "大村市",
        "name_th": "大村市",
        "name_jp": "大村市",
        "name_kr": "大村市",
        "districts": []
      },
      {
        "id": 286,
        "name_en": "大阪市港区",
        "name_th": "大阪市港区",
        "name_jp": "大阪市港区",
        "name_kr": "大阪市港区",
        "districts": []
      },
      {
        "id": 287,
        "name_en": "大阪市住之江区",
        "name_th": "大阪市住之江区",
        "name_jp": "大阪市住之江区",
        "name_kr": "大阪市住之江区",
        "districts": []
      },
      {
        "id": 288,
        "name_en": "仙台市宮城野区",
        "name_th": "仙台市宮城野区",
        "name_jp": "仙台市宮城野区",
        "name_kr": "仙台市宮城野区",
        "districts": [
          {
            "id": 369,
            "name_en": "宮城県",
            "name_th": "宮城県",
            "name_jp": "宮城県",
            "name_kr": "宮城県"
          }
        ]
      },
      {
        "id": 289,
        "name_en": "大阪市西区",
        "name_th": "大阪市西区",
        "name_jp": "大阪市西区",
        "name_kr": "大阪市西区",
        "districts": []
      },
      {
        "id": 290,
        "name_en": "大阪市城東区",
        "name_th": "大阪市城東区",
        "name_jp": "大阪市城東区",
        "name_kr": "大阪市城東区",
        "districts": []
      },
      {
        "id": 291,
        "name_en": "岐阜市",
        "name_th": "岐阜市",
        "name_jp": "岐阜市",
        "name_kr": "岐阜市",
        "districts": [
          {
            "id": 370,
            "name_en": "岐阜県",
            "name_th": "岐阜県",
            "name_jp": "岐阜県",
            "name_kr": "岐阜県"
          }
        ]
      },
      {
        "id": 292,
        "name_en": "栗東市",
        "name_th": "栗東市",
        "name_jp": "栗東市",
        "name_kr": "栗東市",
        "districts": [
          {
            "id": 371,
            "name_en": "滋賀県",
            "name_th": "滋賀県",
            "name_jp": "滋賀県",
            "name_kr": "滋賀県"
          }
        ]
      },
      {
        "id": 293,
        "name_en": "摂津市",
        "name_th": "摂津市",
        "name_jp": "摂津市",
        "name_kr": "摂津市",
        "districts": []
      },
      {
        "id": 294,
        "name_en": "大津市",
        "name_th": "大津市",
        "name_jp": "大津市",
        "name_kr": "大津市",
        "districts": []
      },
      {
        "id": 295,
        "name_en": "大阪市鶴見区",
        "name_th": "大阪市鶴見区",
        "name_jp": "大阪市鶴見区",
        "name_kr": "大阪市鶴見区",
        "districts": []
      },
      {
        "id": 296,
        "name_en": "神戸市須磨区",
        "name_th": "神戸市須磨区",
        "name_jp": "神戸市須磨区",
        "name_kr": "神戸市須磨区",
        "districts": []
      },
      {
        "id": 297,
        "name_en": "各務原市",
        "name_th": "各務原市",
        "name_jp": "各務原市",
        "name_kr": "各務原市",
        "districts": []
      },
      {
        "id": 298,
        "name_en": "神戸市西区",
        "name_th": "神戸市西区",
        "name_jp": "神戸市西区",
        "name_kr": "神戸市西区",
        "districts": []
      },
      {
        "id": 299,
        "name_en": "京都市山科区",
        "name_th": "京都市山科区",
        "name_jp": "京都市山科区",
        "name_kr": "京都市山科区",
        "districts": [
          {
            "id": 372,
            "name_en": "京都府",
            "name_th": "京都府",
            "name_jp": "京都府",
            "name_kr": "京都府"
          }
        ]
      },
      {
        "id": 300,
        "name_en": "神戸市長田区",
        "name_th": "神戸市長田区",
        "name_jp": "神戸市長田区",
        "name_kr": "神戸市長田区",
        "districts": []
      },
      {
        "id": 301,
        "name_en": "尼崎市",
        "name_th": "尼崎市",
        "name_jp": "尼崎市",
        "name_kr": "尼崎市",
        "districts": []
      },
      {
        "id": 302,
        "name_en": "敦賀市",
        "name_th": "敦賀市",
        "name_jp": "敦賀市",
        "name_kr": "敦賀市",
        "districts": [
          {
            "id": 373,
            "name_en": "福井県",
            "name_th": "福井県",
            "name_jp": "福井県",
            "name_kr": "福井県"
          }
        ]
      },
      {
        "id": 303,
        "name_en": "守山市",
        "name_th": "守山市",
        "name_jp": "守山市",
        "name_kr": "守山市",
        "districts": []
      },
      {
        "id": 304,
        "name_en": "彦根市",
        "name_th": "彦根市",
        "name_jp": "彦根市",
        "name_kr": "彦根市",
        "districts": []
      },
      {
        "id": 305,
        "name_en": "大阪市平野区",
        "name_th": "大阪市平野区",
        "name_jp": "大阪市平野区",
        "name_kr": "大阪市平野区",
        "districts": []
      },
      {
        "id": 306,
        "name_en": "茨木市",
        "name_th": "茨木市",
        "name_jp": "茨木市",
        "name_kr": "茨木市",
        "districts": []
      },
      {
        "id": 307,
        "name_en": "郡山市",
        "name_th": "郡山市",
        "name_jp": "郡山市",
        "name_kr": "郡山市",
        "districts": [
          {
            "id": 374,
            "name_en": "福島県",
            "name_th": "福島県",
            "name_jp": "福島県",
            "name_kr": "福島県"
          }
        ]
      },
      {
        "id": 308,
        "name_en": "仙台市泉区",
        "name_th": "仙台市泉区",
        "name_jp": "仙台市泉区",
        "name_kr": "仙台市泉区",
        "districts": []
      },
      {
        "id": 309,
        "name_en": "姫路市",
        "name_th": "姫路市",
        "name_jp": "姫路市",
        "name_kr": "姫路市",
        "districts": []
      },
      {
        "id": 310,
        "name_en": "三田市",
        "name_th": "三田市",
        "name_jp": "三田市",
        "name_kr": "三田市",
        "districts": []
      },
      {
        "id": 311,
        "name_en": "加古川市",
        "name_th": "加古川市",
        "name_jp": "加古川市",
        "name_kr": "加古川市",
        "districts": []
      },
      {
        "id": 312,
        "name_en": "京都市北区",
        "name_th": "京都市北区",
        "name_jp": "京都市北区",
        "name_kr": "京都市北区",
        "districts": []
      },
      {
        "id": 313,
        "name_en": "京都市右京区",
        "name_th": "京都市右京区",
        "name_jp": "京都市右京区",
        "name_kr": "京都市右京区",
        "districts": []
      },
      {
        "id": 385,
        "name_en": "吹田市",
        "name_th": "吹田市",
        "name_jp": "吹田市",
        "name_kr": "吹田市",
        "districts": []
      },
      {
        "id": 314,
        "name_en": "京都市西京区",
        "name_th": "京都市西京区",
        "name_jp": "京都市西京区",
        "name_kr": "京都市西京区",
        "districts": []
      },
      {
        "id": 315,
        "name_en": "京都市伏見区",
        "name_th": "京都市伏見区",
        "name_jp": "京都市伏見区",
        "name_kr": "京都市伏見区",
        "districts": []
      },
      {
        "id": 316,
        "name_en": "京都市中京区",
        "name_th": "京都市中京区",
        "name_jp": "京都市中京区",
        "name_kr": "京都市中京区",
        "districts": []
      },
      {
        "id": 317,
        "name_en": "京都市東山区",
        "name_th": "京都市東山区",
        "name_jp": "京都市東山区",
        "name_kr": "京都市東山区",
        "districts": []
      },
      {
        "id": 318,
        "name_en": "京都市南区",
        "name_th": "京都市南区",
        "name_jp": "京都市南区",
        "name_kr": "京都市南区",
        "districts": []
      },
      {
        "id": 319,
        "name_en": "京都市左京区",
        "name_th": "京都市左京区",
        "name_jp": "京都市左京区",
        "name_kr": "京都市左京区",
        "districts": []
      },
      {
        "id": 320,
        "name_en": "京都市上京区",
        "name_th": "京都市上京区",
        "name_jp": "京都市上京区",
        "name_kr": "京都市上京区",
        "districts": []
      },
      {
        "id": 321,
        "name_en": "城陽市",
        "name_th": "城陽市",
        "name_jp": "城陽市",
        "name_kr": "城陽市",
        "districts": []
      },
      {
        "id": 322,
        "name_en": "宇治市",
        "name_th": "宇治市",
        "name_jp": "宇治市",
        "name_kr": "宇治市",
        "districts": []
      },
      {
        "id": 323,
        "name_en": "向日市",
        "name_th": "向日市",
        "name_jp": "向日市",
        "name_kr": "向日市",
        "districts": []
      },
      {
        "id": 324,
        "name_en": "久世郡久御山町",
        "name_th": "久世郡久御山町",
        "name_jp": "久世郡久御山町",
        "name_kr": "久世郡久御山町",
        "districts": []
      },
      {
        "id": 325,
        "name_en": "八幡市",
        "name_th": "八幡市",
        "name_jp": "八幡市",
        "name_kr": "八幡市",
        "districts": []
      },
      {
        "id": 326,
        "name_en": "長岡京市",
        "name_th": "長岡京市",
        "name_jp": "長岡京市",
        "name_kr": "長岡京市",
        "districts": []
      },
      {
        "id": 327,
        "name_en": "福島市",
        "name_th": "福島市",
        "name_jp": "福島市",
        "name_kr": "福島市",
        "districts": []
      },
      {
        "id": 328,
        "name_en": "東松島市",
        "name_th": "東松島市",
        "name_jp": "東松島市",
        "name_kr": "東松島市",
        "districts": []
      },
      {
        "id": 329,
        "name_en": "仙台市太白区",
        "name_th": "仙台市太白区",
        "name_jp": "仙台市太白区",
        "name_kr": "仙台市太白区",
        "districts": []
      },
      {
        "id": 330,
        "name_en": "佐倉市",
        "name_th": "佐倉市",
        "name_jp": "佐倉市",
        "name_kr": "佐倉市",
        "districts": []
      },
      {
        "id": 331,
        "name_en": "水戸市",
        "name_th": "水戸市",
        "name_jp": "水戸市",
        "name_kr": "水戸市",
        "districts": [
          {
            "id": 375,
            "name_en": "茨城県",
            "name_th": "茨城県",
            "name_jp": "茨城県",
            "name_kr": "茨城県"
          }
        ]
      },
      {
        "id": 332,
        "name_en": "調布市",
        "name_th": "調布市",
        "name_jp": "調布市",
        "name_kr": "調布市",
        "districts": []
      },
      {
        "id": 333,
        "name_en": "足立区",
        "name_th": "足立区",
        "name_jp": "足立区",
        "name_kr": "足立区",
        "districts": []
      },
      {
        "id": 335,
        "name_en": "札幌市白石区",
        "name_th": "札幌市白石区",
        "name_jp": "札幌市白石区",
        "name_kr": "札幌市白石区",
        "districts": []
      },
      {
        "id": 336,
        "name_en": "茅ヶ崎市",
        "name_th": "茅ヶ崎市",
        "name_jp": "茅ヶ崎市",
        "name_kr": "茅ヶ崎市",
        "districts": []
      },
      {
        "id": 337,
        "name_en": "藤沢市",
        "name_th": "藤沢市",
        "name_jp": "藤沢市",
        "name_kr": "藤沢市",
        "districts": []
      },
      {
        "id": 338,
        "name_en": "世田谷区",
        "name_th": "世田谷区",
        "name_jp": "世田谷区",
        "name_kr": "世田谷区",
        "districts": []
      },
      {
        "id": 339,
        "name_en": "板橋区",
        "name_th": "板橋区",
        "name_jp": "板橋区",
        "name_kr": "板橋区",
        "districts": []
      },
      {
        "id": 340,
        "name_en": "杉並区",
        "name_th": "杉並区",
        "name_jp": "杉並区",
        "name_kr": "杉並区",
        "districts": []
      },
      {
        "id": 341,
        "name_en": "町田市",
        "name_th": "町田市",
        "name_jp": "町田市",
        "name_kr": "町田市",
        "districts": []
      },
      {
        "id": 342,
        "name_en": "秩父市",
        "name_th": "秩父市",
        "name_jp": "秩父市",
        "name_kr": "秩父市",
        "districts": []
      },
      {
        "id": 343,
        "name_en": "綾瀬市",
        "name_th": "綾瀬市",
        "name_jp": "綾瀬市",
        "name_kr": "綾瀬市",
        "districts": []
      },
      {
        "id": 344,
        "name_en": "三鷹市",
        "name_th": "三鷹市",
        "name_jp": "三鷹市",
        "name_kr": "三鷹市",
        "districts": []
      },
      {
        "id": 345,
        "name_en": "海老名市",
        "name_th": "海老名市",
        "name_jp": "海老名市",
        "name_kr": "海老名市",
        "districts": []
      },
      {
        "id": 346,
        "name_en": "北本市",
        "name_th": "北本市",
        "name_jp": "北本市",
        "name_kr": "北本市",
        "districts": []
      },
      {
        "id": 347,
        "name_en": "横浜市金沢区",
        "name_th": "横浜市金沢区",
        "name_jp": "横浜市金沢区",
        "name_kr": "横浜市金沢区",
        "districts": []
      },
      {
        "id": 348,
        "name_en": "和歌山市",
        "name_th": "和歌山市",
        "name_jp": "和歌山市",
        "name_kr": "和歌山市",
        "districts": [
          {
            "id": 376,
            "name_en": "和歌山県",
            "name_th": "和歌山県",
            "name_jp": "和歌山県",
            "name_kr": "和歌山県"
          }
        ]
      },
      {
        "id": 349,
        "name_en": "川崎市麻生区",
        "name_th": "川崎市麻生区",
        "name_jp": "川崎市麻生区",
        "name_kr": "川崎市麻生区",
        "districts": []
      },
      {
        "id": 350,
        "name_en": "大田区",
        "name_th": "大田区",
        "name_jp": "大田区",
        "name_kr": "大田区",
        "districts": []
      },
      {
        "id": 351,
        "name_en": "練馬区",
        "name_th": "練馬区",
        "name_jp": "練馬区",
        "name_kr": "練馬区",
        "districts": []
      },
      {
        "id": 352,
        "name_en": "大阪市住吉区",
        "name_th": "大阪市住吉区",
        "name_jp": "大阪市住吉区",
        "name_kr": "大阪市住吉区",
        "districts": []
      },
      {
        "id": 353,
        "name_en": "常滑市",
        "name_th": "常滑市",
        "name_jp": "常滑市",
        "name_kr": "常滑市",
        "districts": []
      },
      {
        "id": 354,
        "name_en": "大阪市旭区",
        "name_th": "大阪市旭区",
        "name_jp": "大阪市旭区",
        "name_kr": "大阪市旭区",
        "districts": []
      },
      {
        "id": 355,
        "name_en": "国立市",
        "name_th": "国立市",
        "name_jp": "国立市",
        "name_kr": "国立市",
        "districts": []
      },
      {
        "id": 357,
        "name_en": "狭山市",
        "name_th": "狭山市",
        "name_jp": "狭山市",
        "name_kr": "狭山市",
        "districts": []
      },
      {
        "id": 358,
        "name_en": "浜松市中区",
        "name_th": "浜松市中区",
        "name_jp": "浜松市中区",
        "name_kr": "浜松市中区",
        "districts": []
      },
      {
        "id": 359,
        "name_en": "岡崎市",
        "name_th": "岡崎市",
        "name_jp": "岡崎市",
        "name_kr": "岡崎市",
        "districts": []
      },
      {
        "id": 356,
        "name_en": "銚子市",
        "name_th": "銚子市",
        "name_jp": "銚子市",
        "name_kr": "銚子市",
        "districts": []
      },
      {
        "id": 360,
        "name_en": "静岡市清水区",
        "name_th": "静岡市清水区",
        "name_jp": "静岡市清水区",
        "name_kr": "静岡市清水区",
        "districts": []
      },
      {
        "id": 361,
        "name_en": "津市",
        "name_th": "津市",
        "name_jp": "津市",
        "name_kr": "津市",
        "districts": [
          {
            "id": 377,
            "name_en": "三重県",
            "name_th": "三重県",
            "name_jp": "三重県",
            "name_kr": "三重県"
          }
        ]
      },
      {
        "id": 362,
        "name_en": "堺市堺区",
        "name_th": "堺市堺区",
        "name_jp": "堺市堺区",
        "name_kr": "堺市堺区",
        "districts": []
      },
      {
        "id": 363,
        "name_en": "堺市中区",
        "name_th": "堺市中区",
        "name_jp": "堺市中区",
        "name_kr": "堺市中区",
        "districts": []
      },
      {
        "id": 364,
        "name_en": "堺市北区",
        "name_th": "堺市北区",
        "name_jp": "堺市北区",
        "name_kr": "堺市北区",
        "districts": []
      },
      {
        "id": 366,
        "name_en": "堺市西区",
        "name_th": "堺市西区",
        "name_jp": "堺市西区",
        "name_kr": "堺市西区",
        "districts": []
      },
      {
        "id": 368,
        "name_en": "八潮市",
        "name_th": "八潮市",
        "name_jp": "八潮市",
        "name_kr": "八潮市",
        "districts": []
      },
      {
        "id": 369,
        "name_en": "千葉市中央区",
        "name_th": "千葉市中央区",
        "name_jp": "千葉市中央区",
        "name_kr": "千葉市中央区",
        "districts": []
      },
      {
        "id": 370,
        "name_en": "堺市東区",
        "name_th": "堺市東区",
        "name_jp": "堺市東区",
        "name_kr": "堺市東区",
        "districts": []
      },
      {
        "id": 371,
        "name_en": "神戸市東灘区",
        "name_th": "神戸市東灘区",
        "name_jp": "神戸市東灘区",
        "name_kr": "神戸市東灘区",
        "districts": []
      },
      {
        "id": 372,
        "name_en": "守口市",
        "name_th": "守口市",
        "name_jp": "守口市",
        "name_kr": "守口市",
        "districts": []
      },
      {
        "id": 374,
        "name_en": "西宮市",
        "name_th": "西宮市",
        "name_jp": "西宮市",
        "name_kr": "西宮市",
        "districts": []
      },
      {
        "id": 375,
        "name_en": "東久留米市",
        "name_th": "東久留米市",
        "name_jp": "東久留米市",
        "name_kr": "東久留米市",
        "districts": []
      },
      {
        "id": 378,
        "name_en": "大阪市西淀川区",
        "name_th": "大阪市西淀川区",
        "name_jp": "大阪市西淀川区",
        "name_kr": "大阪市西淀川区",
        "districts": []
      },
      {
        "id": 379,
        "name_en": "国分寺市",
        "name_th": "国分寺市",
        "name_jp": "国分寺市",
        "name_kr": "国分寺市",
        "districts": []
      },
      {
        "id": 380,
        "name_en": "横浜市西区",
        "name_th": "横浜市西区",
        "name_jp": "横浜市西区",
        "name_kr": "横浜市西区",
        "districts": []
      },
      {
        "id": 381,
        "name_en": "稲城市",
        "name_th": "稲城市",
        "name_jp": "稲城市",
        "name_kr": "稲城市",
        "districts": []
      },
      {
        "id": 382,
        "name_en": "江戸川区",
        "name_th": "江戸川区",
        "name_jp": "江戸川区",
        "name_kr": "江戸川区",
        "districts": []
      },
      {
        "id": 383,
        "name_en": "江東区",
        "name_th": "江東区",
        "name_jp": "江東区",
        "name_kr": "江東区",
        "districts": []
      },
      {
        "id": 384,
        "name_en": "船橋市",
        "name_th": "船橋市",
        "name_jp": "船橋市",
        "name_kr": "船橋市",
        "districts": []
      },
      {
        "id": 386,
        "name_en": "大阪市生野区",
        "name_th": "大阪市生野区",
        "name_jp": "大阪市生野区",
        "name_kr": "大阪市生野区",
        "districts": []
      },
      {
        "id": 387,
        "name_en": "大阪市東淀川区",
        "name_th": "大阪市東淀川区",
        "name_jp": "大阪市東淀川区",
        "name_kr": "大阪市東淀川区",
        "districts": []
      },
      {
        "id": 388,
        "name_en": "武蔵村山市",
        "name_th": "武蔵村山市",
        "name_jp": "武蔵村山市",
        "name_kr": "武蔵村山市",
        "districts": []
      },
      {
        "id": 389,
        "name_en": "田方郡函南町",
        "name_th": "田方郡函南町",
        "name_jp": "田方郡函南町",
        "name_kr": "田方郡函南町",
        "districts": []
      },
      {
        "id": 390,
        "name_en": "鎌倉市",
        "name_th": "鎌倉市",
        "name_jp": "鎌倉市",
        "name_kr": "鎌倉市",
        "districts": []
      },
      {
        "id": 391,
        "name_en": "東松山市",
        "name_th": "東松山市",
        "name_jp": "東松山市",
        "name_kr": "東松山市",
        "districts": []
      },
      {
        "id": 395,
        "name_en": "港区",
        "name_th": "港区",
        "name_jp": "港区",
        "name_kr": "港区",
        "districts": []
      },
      {
        "id": 396,
        "name_en": "座間市",
        "name_th": "座間市",
        "name_jp": "座間市",
        "name_kr": "座間市",
        "districts": []
      },
      {
        "id": 397,
        "name_en": "北九州市小倉北区",
        "name_th": "北九州市小倉北区",
        "name_jp": "北九州市小倉北区",
        "name_kr": "北九州市小倉北区",
        "districts": []
      },
      {
        "id": 398,
        "name_en": "比企郡滑川町",
        "name_th": "比企郡滑川町",
        "name_jp": "比企郡滑川町",
        "name_kr": "比企郡滑川町",
        "districts": []
      },
      {
        "id": 399,
        "name_en": "熊谷市",
        "name_th": "熊谷市",
        "name_jp": "熊谷市",
        "name_kr": "熊谷市",
        "districts": []
      },
      {
        "id": 401,
        "name_en": "岩出市",
        "name_th": "岩出市",
        "name_jp": "岩出市",
        "name_kr": "岩出市",
        "districts": []
      },
      {
        "id": 402,
        "name_en": "鴻巣市",
        "name_th": "鴻巣市",
        "name_jp": "鴻巣市",
        "name_kr": "鴻巣市",
        "districts": []
      },
      {
        "id": 403,
        "name_en": "御殿場市",
        "name_th": "御殿場市",
        "name_jp": "御殿場市",
        "name_kr": "御殿場市",
        "districts": []
      },
      {
        "id": 404,
        "name_en": "桶川市",
        "name_th": "桶川市",
        "name_jp": "桶川市",
        "name_kr": "桶川市",
        "districts": []
      },
      {
        "id": 405,
        "name_en": "富士市",
        "name_th": "富士市",
        "name_jp": "富士市",
        "name_kr": "富士市",
        "districts": []
      },
      {
        "id": 406,
        "name_en": "草加市",
        "name_th": "草加市",
        "name_jp": "草加市",
        "name_kr": "草加市",
        "districts": []
      },
      {
        "id": 407,
        "name_en": "蕨市",
        "name_th": "蕨市",
        "name_jp": "蕨市",
        "name_kr": "蕨市",
        "districts": []
      },
      {
        "id": 408,
        "name_en": "伊勢崎市",
        "name_th": "伊勢崎市",
        "name_jp": "伊勢崎市",
        "name_kr": "伊勢崎市",
        "districts": [
          {
            "id": 378,
            "name_en": "群馬県",
            "name_th": "群馬県",
            "name_jp": "群馬県",
            "name_kr": "群馬県"
          }
        ]
      },
      {
        "id": 409,
        "name_en": "高崎市",
        "name_th": "高崎市",
        "name_jp": "高崎市",
        "name_kr": "高崎市",
        "districts": []
      },
      {
        "id": 410,
        "name_en": "海南市",
        "name_th": "海南市",
        "name_jp": "海南市",
        "name_kr": "海南市",
        "districts": []
      },
      {
        "id": 411,
        "name_en": "岸和田市",
        "name_th": "岸和田市",
        "name_jp": "岸和田市",
        "name_kr": "岸和田市",
        "districts": []
      },
      {
        "id": 413,
        "name_en": "土浦市",
        "name_th": "土浦市",
        "name_jp": "土浦市",
        "name_kr": "土浦市",
        "districts": []
      },
      {
        "id": 414,
        "name_en": "一宮市",
        "name_th": "一宮市",
        "name_jp": "一宮市",
        "name_kr": "一宮市",
        "districts": []
      },
      {
        "id": 415,
        "name_en": "古河市",
        "name_th": "古河市",
        "name_jp": "古河市",
        "name_kr": "古河市",
        "districts": []
      },
      {
        "id": 416,
        "name_en": "小平市",
        "name_th": "小平市",
        "name_jp": "小平市",
        "name_kr": "小平市",
        "districts": []
      },
      {
        "id": 417,
        "name_en": "浜松市南区",
        "name_th": "浜松市南区",
        "name_jp": "浜松市南区",
        "name_kr": "浜松市南区",
        "districts": []
      },
      {
        "id": 418,
        "name_en": "志摩市",
        "name_th": "志摩市",
        "name_jp": "志摩市",
        "name_kr": "志摩市",
        "districts": []
      },
      {
        "id": 419,
        "name_en": "南相馬市",
        "name_th": "南相馬市",
        "name_jp": "南相馬市",
        "name_kr": "南相馬市",
        "districts": []
      },
      {
        "id": 420,
        "name_en": "大崎市",
        "name_th": "大崎市",
        "name_jp": "大崎市",
        "name_kr": "大崎市",
        "districts": []
      },
      {
        "id": 423,
        "name_en": "高座郡寒川町",
        "name_th": "高座郡寒川町",
        "name_jp": "高座郡寒川町",
        "name_kr": "高座郡寒川町",
        "districts": []
      },
      {
        "id": 424,
        "name_en": "加東市",
        "name_th": "加東市",
        "name_jp": "加東市",
        "name_kr": "加東市",
        "districts": []
      },
      {
        "id": 425,
        "name_en": "神崎郡福崎町",
        "name_th": "神崎郡福崎町",
        "name_jp": "神崎郡福崎町",
        "name_kr": "神崎郡福崎町",
        "districts": []
      },
      {
        "id": 426,
        "name_en": "行田市",
        "name_th": "行田市",
        "name_jp": "行田市",
        "name_kr": "行田市",
        "districts": []
      },
      {
        "id": 427,
        "name_en": "仙台市若林区",
        "name_th": "仙台市若林区",
        "name_jp": "仙台市若林区",
        "name_kr": "仙台市若林区",
        "districts": []
      },
      {
        "id": 428,
        "name_en": "墨田区",
        "name_th": "墨田区",
        "name_jp": "墨田区",
        "name_kr": "墨田区",
        "districts": []
      },
      {
        "id": 429,
        "name_en": "狛江市",
        "name_th": "狛江市",
        "name_jp": "狛江市",
        "name_kr": "狛江市",
        "districts": []
      },
      {
        "id": 430,
        "name_en": "入間市",
        "name_th": "入間市",
        "name_jp": "入間市",
        "name_kr": "入間市",
        "districts": []
      },
      {
        "id": 431,
        "name_en": "名古屋市千種区",
        "name_th": "名古屋市千種区",
        "name_jp": "名古屋市千種区",
        "name_kr": "名古屋市千種区",
        "districts": []
      },
      {
        "id": 432,
        "name_en": "前橋市",
        "name_th": "前橋市",
        "name_jp": "前橋市",
        "name_kr": "前橋市",
        "districts": []
      },
      {
        "id": 433,
        "name_en": "富士宮市",
        "name_th": "富士宮市",
        "name_jp": "富士宮市",
        "name_kr": "富士宮市",
        "districts": []
      },
      {
        "id": 434,
        "name_en": "北名古屋市",
        "name_th": "北名古屋市",
        "name_jp": "北名古屋市",
        "name_kr": "北名古屋市",
        "districts": []
      },
      {
        "id": 435,
        "name_en": "成田市",
        "name_th": "成田市",
        "name_jp": "成田市",
        "name_kr": "成田市",
        "districts": []
      },
      {
        "id": 436,
        "name_en": "飯能市",
        "name_th": "飯能市",
        "name_jp": "飯能市",
        "name_kr": "飯能市",
        "districts": []
      },
      {
        "id": 437,
        "name_en": "越谷市",
        "name_th": "越谷市",
        "name_jp": "越谷市",
        "name_kr": "越谷市",
        "districts": []
      },
      {
        "id": 438,
        "name_en": "柏市",
        "name_th": "柏市",
        "name_jp": "柏市",
        "name_kr": "柏市",
        "districts": []
      },
      {
        "id": 439,
        "name_en": "春日井市",
        "name_th": "春日井市",
        "name_jp": "春日井市",
        "name_kr": "春日井市",
        "districts": []
      },
      {
        "id": 440,
        "name_en": "高槻市",
        "name_th": "高槻市",
        "name_jp": "高槻市",
        "name_kr": "高槻市",
        "districts": []
      },
      {
        "id": 441,
        "name_en": "生駒市",
        "name_th": "生駒市",
        "name_jp": "生駒市",
        "name_kr": "生駒市",
        "districts": [
          {
            "id": 380,
            "name_en": "奈良県",
            "name_th": "奈良県",
            "name_jp": "奈良県",
            "name_kr": "奈良県"
          }
        ]
      },
      {
        "id": 442,
        "name_en": "奈良市",
        "name_th": "奈良市",
        "name_jp": "奈良市",
        "name_kr": "奈良市",
        "districts": [
          {
            "id": 379,
            "name_en": "奈良県",
            "name_th": "奈良県",
            "name_jp": "奈良県",
            "name_kr": "奈良県"
          },
          {
            "id": 382,
            "name_en": "奈良県",
            "name_th": "奈良県",
            "name_jp": "奈良県",
            "name_kr": "奈良県"
          }
        ]
      },
      {
        "id": 445,
        "name_en": "天理市",
        "name_th": "天理市",
        "name_jp": "天理市",
        "name_kr": "天理市",
        "districts": [
          {
            "id": 381,
            "name_en": "奈良県",
            "name_th": "奈良県",
            "name_jp": "奈良県",
            "name_kr": "奈良県"
          }
        ]
      },
      {
        "id": 447,
        "name_en": "豊田市",
        "name_th": "豊田市",
        "name_jp": "豊田市",
        "name_kr": "豊田市",
        "districts": []
      },
      {
        "id": 448,
        "name_en": "石巻市",
        "name_th": "石巻市",
        "name_jp": "石巻市",
        "name_kr": "石巻市",
        "districts": []
      },
      {
        "id": 449,
        "name_en": "寝屋川市",
        "name_th": "寝屋川市",
        "name_jp": "寝屋川市",
        "name_kr": "寝屋川市",
        "districts": []
      },
      {
        "id": 453,
        "name_en": "泉北郡忠岡町",
        "name_th": "泉北郡忠岡町",
        "name_jp": "泉北郡忠岡町",
        "name_kr": "泉北郡忠岡町",
        "districts": []
      },
      {
        "id": 452,
        "name_en": "大東市",
        "name_th": "大東市",
        "name_jp": "大東市",
        "name_kr": "大東市",
        "districts": []
      },
      {
        "id": 454,
        "name_en": "大阪市東住吉区",
        "name_th": "大阪市東住吉区",
        "name_jp": "大阪市東住吉区",
        "name_kr": "大阪市東住吉区",
        "districts": []
      },
      {
        "id": 455,
        "name_en": "泉大津市",
        "name_th": "泉大津市",
        "name_jp": "泉大津市",
        "name_kr": "泉大津市",
        "districts": []
      },
      {
        "id": 456,
        "name_en": "池田市",
        "name_th": "池田市",
        "name_jp": "池田市",
        "name_kr": "池田市",
        "districts": []
      },
      {
        "id": 457,
        "name_en": "大阪市福島区",
        "name_th": "大阪市福島区",
        "name_jp": "大阪市福島区",
        "name_kr": "大阪市福島区",
        "districts": []
      },
      {
        "id": 458,
        "name_en": "駿東郡清水町",
        "name_th": "駿東郡清水町",
        "name_jp": "駿東郡清水町",
        "name_kr": "駿東郡清水町",
        "districts": []
      },
      {
        "id": 459,
        "name_en": "沼津市",
        "name_th": "沼津市",
        "name_jp": "沼津市",
        "name_kr": "沼津市",
        "districts": []
      },
      {
        "id": 464,
        "name_en": "大阪市此花区",
        "name_th": "大阪市此花区",
        "name_jp": "大阪市此花区",
        "name_kr": "大阪市此花区",
        "districts": []
      },
      {
        "id": 465,
        "name_en": "名古屋市北区",
        "name_th": "名古屋市北区",
        "name_jp": "名古屋市北区",
        "name_kr": "名古屋市北区",
        "districts": []
      },
      {
        "id": 466,
        "name_en": "紀の川市",
        "name_th": "紀の川市",
        "name_jp": "紀の川市",
        "name_kr": "紀の川市",
        "districts": []
      },
      {
        "id": 468,
        "name_en": "富里市",
        "name_th": "富里市",
        "name_jp": "富里市",
        "name_kr": "富里市",
        "districts": []
      },
      {
        "id": 467,
        "name_en": "宇都宮市",
        "name_th": "宇都宮市",
        "name_jp": "宇都宮市",
        "name_kr": "宇都宮市",
        "districts": []
      },
      {
        "id": 469,
        "name_en": "双葉郡富岡町",
        "name_th": "双葉郡富岡町",
        "name_jp": "双葉郡富岡町",
        "name_kr": "双葉郡富岡町",
        "districts": []
      },
      {
        "id": 470,
        "name_en": "安芸郡熊野町",
        "name_th": "安芸郡熊野町",
        "name_jp": "安芸郡熊野町",
        "name_kr": "安芸郡熊野町",
        "districts": []
      },
      {
        "id": 471,
        "name_en": "富谷市",
        "name_th": "富谷市",
        "name_jp": "富谷市",
        "name_kr": "富谷市",
        "districts": []
      },
      {
        "id": 472,
        "name_en": "北区",
        "name_th": "北区",
        "name_jp": "北区",
        "name_kr": "北区",
        "districts": []
      },
      {
        "id": 473,
        "name_en": "名古屋市中区",
        "name_th": "名古屋市中区",
        "name_jp": "名古屋市中区",
        "name_kr": "名古屋市中区",
        "districts": []
      },
      {
        "id": 475,
        "name_en": "名取市",
        "name_th": "名取市",
        "name_jp": "名取市",
        "name_kr": "名取市",
        "districts": []
      },
      {
        "id": 476,
        "name_en": "日野市",
        "name_th": "日野市",
        "name_jp": "日野市",
        "name_kr": "日野市",
        "districts": []
      },
      {
        "id": 477,
        "name_en": "立川市",
        "name_th": "立川市",
        "name_jp": "立川市",
        "name_kr": "立川市",
        "districts": []
      },
      {
        "id": 479,
        "name_en": "横浜市保土ケ谷区",
        "name_th": "横浜市保土ケ谷区",
        "name_jp": "横浜市保土ケ谷区",
        "name_kr": "横浜市保土ケ谷区",
        "districts": []
      },
      {
        "id": 481,
        "name_en": "倉敷市",
        "name_th": "倉敷市",
        "name_jp": "倉敷市",
        "name_kr": "倉敷市",
        "districts": [
          {
            "id": 383,
            "name_en": "岡山県",
            "name_th": "岡山県",
            "name_jp": "岡山県",
            "name_kr": "岡山県"
          },
          {
            "id": 384,
            "name_en": "岡山県",
            "name_th": "岡山県",
            "name_jp": "岡山県",
            "name_kr": "岡山県"
          }
        ]
      },
      {
        "id": 482,
        "name_en": "小牧市",
        "name_th": "小牧市",
        "name_jp": "小牧市",
        "name_kr": "小牧市",
        "districts": []
      },
      {
        "id": 483,
        "name_en": "湖西市",
        "name_th": "湖西市",
        "name_jp": "湖西市",
        "name_kr": "湖西市",
        "districts": []
      },
      {
        "id": 485,
        "name_en": "中野区",
        "name_th": "中野区",
        "name_jp": "中野区",
        "name_kr": "中野区",
        "districts": []
      },
      {
        "id": 486,
        "name_en": "半田市",
        "name_th": "半田市",
        "name_jp": "半田市",
        "name_kr": "半田市",
        "districts": []
      },
      {
        "id": 484,
        "name_en": "三浦市",
        "name_th": "三浦市",
        "name_jp": "三浦市",
        "name_kr": "三浦市",
        "districts": []
      },
      {
        "id": 487,
        "name_en": "静岡市駿河区",
        "name_th": "静岡市駿河区",
        "name_jp": "静岡市駿河区",
        "name_kr": "静岡市駿河区",
        "districts": []
      },
      {
        "id": 488,
        "name_en": "伊勢原市",
        "name_th": "伊勢原市",
        "name_jp": "伊勢原市",
        "name_kr": "伊勢原市",
        "districts": []
      },
      {
        "id": 490,
        "name_en": "八千代市",
        "name_th": "八千代市",
        "name_jp": "八千代市",
        "name_kr": "八千代市",
        "districts": []
      },
      {
        "id": 492,
        "name_en": "八街市",
        "name_th": "八街市",
        "name_jp": "八街市",
        "name_kr": "八街市",
        "districts": []
      },
      {
        "id": 493,
        "name_en": "名古屋市中川区",
        "name_th": "名古屋市中川区",
        "name_jp": "名古屋市中川区",
        "name_kr": "名古屋市中川区",
        "districts": []
      },
      {
        "id": 494,
        "name_en": "四日市市",
        "name_th": "四日市市",
        "name_jp": "四日市市",
        "name_kr": "四日市市",
        "districts": []
      },
      {
        "id": 495,
        "name_en": "名古屋市西区",
        "name_th": "名古屋市西区",
        "name_jp": "名古屋市西区",
        "name_kr": "名古屋市西区",
        "districts": []
      },
      {
        "id": 496,
        "name_en": "市原市",
        "name_th": "市原市",
        "name_jp": "市原市",
        "name_kr": "市原市",
        "districts": []
      },
      {
        "id": 497,
        "name_en": "印西市",
        "name_th": "印西市",
        "name_jp": "印西市",
        "name_kr": "印西市",
        "districts": []
      },
      {
        "id": 498,
        "name_en": "名古屋市南区",
        "name_th": "名古屋市南区",
        "name_jp": "名古屋市南区",
        "name_kr": "名古屋市南区",
        "districts": []
      },
      {
        "id": 499,
        "name_en": "羽島市",
        "name_th": "羽島市",
        "name_jp": "羽島市",
        "name_kr": "羽島市",
        "districts": []
      },
      {
        "id": 500,
        "name_en": "羽島郡笠松町",
        "name_th": "羽島郡笠松町",
        "name_jp": "羽島郡笠松町",
        "name_kr": "羽島郡笠松町",
        "districts": []
      },
      {
        "id": 501,
        "name_en": "羽島郡岐南町",
        "name_th": "羽島郡岐南町",
        "name_jp": "羽島郡岐南町",
        "name_kr": "羽島郡岐南町",
        "districts": []
      },
      {
        "id": 503,
        "name_en": "川崎市川崎区",
        "name_th": "川崎市川崎区",
        "name_jp": "川崎市川崎区",
        "name_kr": "川崎市川崎区",
        "districts": []
      },
      {
        "id": 504,
        "name_en": "土岐市",
        "name_th": "土岐市",
        "name_jp": "土岐市",
        "name_kr": "土岐市",
        "districts": []
      },
      {
        "id": 505,
        "name_en": "我孫子市",
        "name_th": "我孫子市",
        "name_jp": "我孫子市",
        "name_kr": "我孫子市",
        "districts": []
      },
      {
        "id": 507,
        "name_en": "日高市",
        "name_th": "日高市",
        "name_jp": "日高市",
        "name_kr": "日高市",
        "districts": []
      },
      {
        "id": 508,
        "name_en": "南埼玉郡宮代町",
        "name_th": "南埼玉郡宮代町",
        "name_jp": "南埼玉郡宮代町",
        "name_kr": "南埼玉郡宮代町",
        "districts": []
      },
      {
        "id": 509,
        "name_en": "松阪市",
        "name_th": "松阪市",
        "name_jp": "松阪市",
        "name_kr": "松阪市",
        "districts": []
      },
      {
        "id": 511,
        "name_en": "本庄市",
        "name_th": "本庄市",
        "name_jp": "本庄市",
        "name_kr": "本庄市",
        "districts": []
      },
      {
        "id": 512,
        "name_en": "東大和市",
        "name_th": "東大和市",
        "name_jp": "東大和市",
        "name_kr": "東大和市",
        "districts": []
      },
      {
        "id": 513,
        "name_en": "静岡市葵区",
        "name_th": "静岡市葵区",
        "name_jp": "静岡市葵区",
        "name_kr": "静岡市葵区",
        "districts": []
      },
      {
        "id": 514,
        "name_en": "清須市",
        "name_th": "清須市",
        "name_jp": "清須市",
        "name_kr": "清須市",
        "districts": []
      },
      {
        "id": 515,
        "name_en": "流山市",
        "name_th": "流山市",
        "name_jp": "流山市",
        "name_kr": "流山市",
        "districts": []
      },
      {
        "id": 518,
        "name_en": "焼津市",
        "name_th": "焼津市",
        "name_jp": "焼津市",
        "name_kr": "焼津市",
        "districts": []
      },
      {
        "id": 519,
        "name_en": "深谷市",
        "name_th": "深谷市",
        "name_jp": "深谷市",
        "name_kr": "深谷市",
        "districts": []
      },
      {
        "id": 520,
        "name_en": "犬山市",
        "name_th": "犬山市",
        "name_jp": "犬山市",
        "name_kr": "犬山市",
        "districts": []
      },
      {
        "id": 521,
        "name_en": "白井市",
        "name_th": "白井市",
        "name_jp": "白井市",
        "name_kr": "白井市",
        "districts": []
      },
      {
        "id": 522,
        "name_en": "白岡市",
        "name_th": "白岡市",
        "name_jp": "白岡市",
        "name_kr": "白岡市",
        "districts": []
      },
      {
        "id": 523,
        "name_en": "碧南市",
        "name_th": "碧南市",
        "name_jp": "碧南市",
        "name_kr": "碧南市",
        "districts": []
      },
      {
        "id": 524,
        "name_en": "鈴鹿市",
        "name_th": "鈴鹿市",
        "name_jp": "鈴鹿市",
        "name_kr": "鈴鹿市",
        "districts": []
      },
      {
        "id": 525,
        "name_en": "野田市",
        "name_th": "野田市",
        "name_jp": "野田市",
        "name_kr": "野田市",
        "districts": []
      },
      {
        "id": 528,
        "name_en": "香取市",
        "name_th": "香取市",
        "name_jp": "香取市",
        "name_kr": "香取市",
        "districts": []
      },
      {
        "id": 530,
        "name_en": "藤枝市",
        "name_th": "藤枝市",
        "name_jp": "藤枝市",
        "name_kr": "藤枝市",
        "districts": []
      },
      {
        "id": 531,
        "name_en": "蓮田市",
        "name_th": "蓮田市",
        "name_jp": "蓮田市",
        "name_kr": "蓮田市",
        "districts": []
      },
      {
        "id": 532,
        "name_en": "市川市",
        "name_th": "市川市",
        "name_jp": "市川市",
        "name_kr": "市川市",
        "districts": []
      },
      {
        "id": 533,
        "name_en": "福生市",
        "name_th": "福生市",
        "name_jp": "福生市",
        "name_kr": "福生市",
        "districts": []
      },
      {
        "id": 534,
        "name_en": "広島市安佐北区",
        "name_th": "広島市安佐北区",
        "name_jp": "広島市安佐北区",
        "name_kr": "広島市安佐北区",
        "districts": []
      },
      {
        "id": 535,
        "name_en": "宇部市",
        "name_th": "宇部市",
        "name_jp": "宇部市",
        "name_kr": "宇部市",
        "districts": [
          {
            "id": 385,
            "name_en": "山口県",
            "name_th": "山口県",
            "name_jp": "山口県",
            "name_kr": "山口県"
          },
          {
            "id": 386,
            "name_en": "山口県",
            "name_th": "山口県",
            "name_jp": "山口県",
            "name_kr": "山口県"
          }
        ]
      },
      {
        "id": 537,
        "name_en": "入間郡毛呂山町",
        "name_th": "入間郡毛呂山町",
        "name_jp": "入間郡毛呂山町",
        "name_kr": "入間郡毛呂山町",
        "districts": []
      },
      {
        "id": 538,
        "name_en": "香芝市",
        "name_th": "香芝市",
        "name_jp": "香芝市",
        "name_kr": "香芝市",
        "districts": []
      },
      {
        "id": 539,
        "name_en": "大和郡山市",
        "name_th": "大和郡山市",
        "name_jp": "大和郡山市",
        "name_kr": "大和郡山市",
        "districts": []
      },
      {
        "id": 541,
        "name_en": "橿原市",
        "name_th": "橿原市",
        "name_jp": "橿原市",
        "name_kr": "橿原市",
        "districts": []
      },
      {
        "id": 545,
        "name_en": "桜井市",
        "name_th": "桜井市",
        "name_jp": "桜井市",
        "name_kr": "桜井市",
        "districts": []
      },
      {
        "id": 546,
        "name_en": "磯城郡田原本町",
        "name_th": "磯城郡田原本町",
        "name_jp": "磯城郡田原本町",
        "name_kr": "磯城郡田原本町",
        "districts": []
      },
      {
        "id": 550,
        "name_en": "大和高田市",
        "name_th": "大和高田市",
        "name_jp": "大和高田市",
        "name_kr": "大和高田市",
        "districts": []
      },
      {
        "id": 551,
        "name_en": "御所市",
        "name_th": "御所市",
        "name_jp": "御所市",
        "name_kr": "御所市",
        "districts": []
      },
      {
        "id": 552,
        "name_en": "北葛城郡河合町",
        "name_th": "北葛城郡河合町",
        "name_jp": "北葛城郡河合町",
        "name_kr": "北葛城郡河合町",
        "districts": []
      },
      {
        "id": 553,
        "name_en": "宮崎市",
        "name_th": "宮崎市",
        "name_jp": "宮崎市",
        "name_kr": "宮崎市",
        "districts": [
          {
            "id": 387,
            "name_en": "宮崎県",
            "name_th": "宮崎県",
            "name_jp": "宮崎県",
            "name_kr": "宮崎県"
          }
        ]
      },
      {
        "id": 554,
        "name_en": "交野市",
        "name_th": "交野市",
        "name_jp": "交野市",
        "name_kr": "交野市",
        "districts": []
      },
      {
        "id": 555,
        "name_en": "松原市",
        "name_th": "松原市",
        "name_jp": "松原市",
        "name_kr": "松原市",
        "districts": []
      },
      {
        "id": 556,
        "name_en": "宝塚市",
        "name_th": "宝塚市",
        "name_jp": "宝塚市",
        "name_kr": "宝塚市",
        "districts": []
      },
      {
        "id": 557,
        "name_en": "富田林市",
        "name_th": "富田林市",
        "name_jp": "富田林市",
        "name_kr": "富田林市",
        "districts": []
      },
      {
        "id": 563,
        "name_en": "三島郡島本町",
        "name_th": "三島郡島本町",
        "name_jp": "三島郡島本町",
        "name_kr": "三島郡島本町",
        "districts": []
      },
      {
        "id": 565,
        "name_en": "大阪狭山市",
        "name_th": "大阪狭山市",
        "name_jp": "大阪狭山市",
        "name_kr": "大阪狭山市",
        "districts": []
      },
      {
        "id": 564,
        "name_en": "羽曳野市",
        "name_th": "羽曳野市",
        "name_jp": "羽曳野市",
        "name_kr": "羽曳野市",
        "districts": []
      },
      {
        "id": 566,
        "name_en": "青梅市",
        "name_th": "青梅市",
        "name_jp": "青梅市",
        "name_kr": "青梅市",
        "districts": []
      },
      {
        "id": 567,
        "name_en": "三島市",
        "name_th": "三島市",
        "name_jp": "三島市",
        "name_kr": "三島市",
        "districts": []
      },
      {
        "id": 569,
        "name_en": "渋谷区",
        "name_th": "渋谷区",
        "name_jp": "渋谷区",
        "name_kr": "渋谷区",
        "districts": []
      },
      {
        "id": 570,
        "name_en": "相馬市",
        "name_th": "相馬市",
        "name_jp": "相馬市",
        "name_kr": "相馬市",
        "districts": []
      },
      {
        "id": 571,
        "name_en": "目黒区",
        "name_th": "目黒区",
        "name_jp": "目黒区",
        "name_kr": "目黒区",
        "districts": []
      },
      {
        "id": 573,
        "name_en": "草津市",
        "name_th": "草津市",
        "name_jp": "草津市",
        "name_kr": "草津市",
        "districts": []
      },
      {
        "id": 574,
        "name_en": "さいたま市中央区",
        "name_th": "さいたま市中央区",
        "name_jp": "さいたま市中央区",
        "name_kr": "さいたま市中央区",
        "districts": []
      },
      {
        "id": 575,
        "name_en": "さいたま市浦和区",
        "name_th": "さいたま市浦和区",
        "name_jp": "さいたま市浦和区",
        "name_kr": "さいたま市浦和区",
        "districts": []
      },
      {
        "id": 576,
        "name_en": "取手市",
        "name_th": "取手市",
        "name_jp": "取手市",
        "name_kr": "取手市",
        "districts": []
      },
      {
        "id": 577,
        "name_en": "秋田市",
        "name_th": "秋田市",
        "name_jp": "秋田市",
        "name_kr": "秋田市",
        "districts": [
          {
            "id": 388,
            "name_en": "秋田県",
            "name_th": "秋田県",
            "name_jp": "秋田県",
            "name_kr": "秋田県"
          }
        ]
      },
      {
        "id": 578,
        "name_en": "比企郡鳩山町",
        "name_th": "比企郡鳩山町",
        "name_jp": "比企郡鳩山町",
        "name_kr": "比企郡鳩山町",
        "districts": []
      },
      {
        "id": 579,
        "name_en": "松山市",
        "name_th": "松山市",
        "name_jp": "松山市",
        "name_kr": "松山市",
        "districts": [
          {
            "id": 389,
            "name_en": "愛媛県",
            "name_th": "愛媛県",
            "name_jp": "愛媛県",
            "name_kr": "愛媛県"
          }
        ]
      },
      {
        "id": 580,
        "name_en": "比企郡嵐山町",
        "name_th": "比企郡嵐山町",
        "name_jp": "比企郡嵐山町",
        "name_kr": "比企郡嵐山町",
        "districts": []
      },
      {
        "id": 581,
        "name_en": "岡山市北区",
        "name_th": "岡山市北区",
        "name_jp": "岡山市北区",
        "name_kr": "岡山市北区",
        "districts": []
      },
      {
        "id": 582,
        "name_en": "名古屋市守山区",
        "name_th": "名古屋市守山区",
        "name_jp": "名古屋市守山区",
        "name_kr": "名古屋市守山区",
        "districts": []
      },
      {
        "id": 583,
        "name_en": "岩沼市",
        "name_th": "岩沼市",
        "name_jp": "岩沼市",
        "name_kr": "岩沼市",
        "districts": []
      },
      {
        "id": 584,
        "name_en": "横浜市港南区",
        "name_th": "横浜市港南区",
        "name_jp": "横浜市港南区",
        "name_kr": "横浜市港南区",
        "districts": []
      },
      {
        "id": 585,
        "name_en": "横浜市磯子区",
        "name_th": "横浜市磯子区",
        "name_jp": "横浜市磯子区",
        "name_kr": "横浜市磯子区",
        "districts": []
      },
      {
        "id": 586,
        "name_en": "栃木市",
        "name_th": "栃木市",
        "name_jp": "栃木市",
        "name_kr": "栃木市",
        "districts": []
      },
      {
        "id": 587,
        "name_en": "習志野市",
        "name_th": "習志野市",
        "name_jp": "習志野市",
        "name_kr": "習志野市",
        "districts": []
      },
      {
        "id": 589,
        "name_en": "小山市",
        "name_th": "小山市",
        "name_jp": "小山市",
        "name_kr": "小山市",
        "districts": []
      },
      {
        "id": 590,
        "name_en": "刈谷市",
        "name_th": "刈谷市",
        "name_jp": "刈谷市",
        "name_kr": "刈谷市",
        "districts": []
      },
      {
        "id": 591,
        "name_en": "金沢市",
        "name_th": "金沢市",
        "name_jp": "金沢市",
        "name_kr": "金沢市",
        "districts": [
          {
            "id": 390,
            "name_en": "石川県",
            "name_th": "石川県",
            "name_jp": "石川県",
            "name_kr": "石川県"
          },
          {
            "id": 391,
            "name_en": "石川県",
            "name_th": "石川県",
            "name_jp": "石川県",
            "name_kr": "石川県"
          }
        ]
      },
      {
        "id": 593,
        "name_en": "熊本市東区",
        "name_th": "熊本市東区",
        "name_jp": "熊本市東区",
        "name_kr": "熊本市東区",
        "districts": [
          {
            "id": 392,
            "name_en": "熊本県",
            "name_th": "熊本県",
            "name_jp": "熊本県",
            "name_kr": "熊本県"
          }
        ]
      },
      {
        "id": 594,
        "name_en": "那珂川市",
        "name_th": "那珂川市",
        "name_jp": "那珂川市",
        "name_kr": "那珂川市",
        "districts": []
      },
      {
        "id": 595,
        "name_en": "大野城市",
        "name_th": "大野城市",
        "name_jp": "大野城市",
        "name_kr": "大野城市",
        "districts": []
      },
      {
        "id": 596,
        "name_en": "北九州市戸畑区",
        "name_th": "北九州市戸畑区",
        "name_jp": "北九州市戸畑区",
        "name_kr": "北九州市戸畑区",
        "districts": []
      },
      {
        "id": 597,
        "name_en": "久留米市",
        "name_th": "久留米市",
        "name_jp": "久留米市",
        "name_kr": "久留米市",
        "districts": []
      },
      {
        "id": 598,
        "name_en": "糟屋郡志免町",
        "name_th": "糟屋郡志免町",
        "name_jp": "糟屋郡志免町",
        "name_kr": "糟屋郡志免町",
        "districts": []
      },
      {
        "id": 599,
        "name_en": "太宰府市",
        "name_th": "太宰府市",
        "name_jp": "太宰府市",
        "name_kr": "太宰府市",
        "districts": []
      },
      {
        "id": 602,
        "name_en": "守谷市",
        "name_th": "守谷市",
        "name_jp": "守谷市",
        "name_kr": "守谷市",
        "districts": []
      },
      {
        "id": 603,
        "name_en": "下野市",
        "name_th": "下野市",
        "name_jp": "下野市",
        "name_kr": "下野市",
        "districts": []
      },
      {
        "id": 605,
        "name_en": "佐野市",
        "name_th": "佐野市",
        "name_jp": "佐野市",
        "name_kr": "佐野市",
        "districts": []
      },
      {
        "id": 606,
        "name_en": "岡山市中区",
        "name_th": "岡山市中区",
        "name_jp": "岡山市中区",
        "name_kr": "岡山市中区",
        "districts": []
      },
      {
        "id": 607,
        "name_en": "長生郡一宮町",
        "name_th": "長生郡一宮町",
        "name_jp": "長生郡一宮町",
        "name_kr": "長生郡一宮町",
        "districts": []
      },
      {
        "id": 609,
        "name_en": "京都市下京区",
        "name_th": "京都市下京区",
        "name_jp": "京都市下京区",
        "name_kr": "京都市下京区",
        "districts": []
      },
      {
        "id": 611,
        "name_en": "牛久市",
        "name_th": "牛久市",
        "name_jp": "牛久市",
        "name_kr": "牛久市",
        "districts": []
      },
      {
        "id": 612,
        "name_en": "つくば市",
        "name_th": "つくば市",
        "name_jp": "つくば市",
        "name_kr": "つくば市",
        "districts": []
      },
      {
        "id": 613,
        "name_en": "鹿沼市",
        "name_th": "鹿沼市",
        "name_jp": "鹿沼市",
        "name_kr": "鹿沼市",
        "districts": []
      },
      {
        "id": 614,
        "name_en": "高砂市",
        "name_th": "高砂市",
        "name_jp": "高砂市",
        "name_kr": "高砂市",
        "districts": []
      },
      {
        "id": 616,
        "name_en": "岡山市南区",
        "name_th": "岡山市南区",
        "name_jp": "岡山市南区",
        "name_kr": "岡山市南区",
        "districts": []
      },
      {
        "id": 615,
        "name_en": "多摩市",
        "name_th": "多摩市",
        "name_jp": "多摩市",
        "name_kr": "多摩市",
        "districts": []
      },
      {
        "id": 617,
        "name_en": "西多摩郡瑞穂町",
        "name_th": "西多摩郡瑞穂町",
        "name_jp": "西多摩郡瑞穂町",
        "name_kr": "西多摩郡瑞穂町",
        "districts": []
      },
      {
        "id": 618,
        "name_en": "行橋市",
        "name_th": "行橋市",
        "name_jp": "行橋市",
        "name_kr": "行橋市",
        "districts": []
      },
      {
        "id": 619,
        "name_en": "京都郡苅田町",
        "name_th": "京都郡苅田町",
        "name_jp": "京都郡苅田町",
        "name_kr": "京都郡苅田町",
        "districts": []
      },
      {
        "id": 620,
        "name_en": "本宮市",
        "name_th": "本宮市",
        "name_jp": "本宮市",
        "name_kr": "本宮市",
        "districts": []
      },
      {
        "id": 621,
        "name_en": "富山市",
        "name_th": "富山市",
        "name_jp": "富山市",
        "name_kr": "富山市",
        "districts": [
          {
            "id": 394,
            "name_en": "富山県",
            "name_th": "富山県",
            "name_jp": "富山県",
            "name_kr": "富山県"
          }
        ]
      },
      {
        "id": 622,
        "name_en": "大船渡市",
        "name_th": "大船渡市",
        "name_jp": "大船渡市",
        "name_kr": "大船渡市",
        "districts": [
          {
            "id": 393,
            "name_en": "岩手県",
            "name_th": "岩手県",
            "name_jp": "岩手県",
            "name_kr": "岩手県"
          }
        ]
      },
      {
        "id": 623,
        "name_en": "鎌ケ谷市",
        "name_th": "鎌ケ谷市",
        "name_jp": "鎌ケ谷市",
        "name_kr": "鎌ケ谷市",
        "districts": []
      },
      {
        "id": 624,
        "name_en": "神栖市",
        "name_th": "神栖市",
        "name_jp": "神栖市",
        "name_kr": "神栖市",
        "districts": []
      },
      {
        "id": 625,
        "name_en": "結城市",
        "name_th": "結城市",
        "name_jp": "結城市",
        "name_kr": "結城市",
        "districts": []
      },
      {
        "id": 626,
        "name_en": "掛川市",
        "name_th": "掛川市",
        "name_jp": "掛川市",
        "name_kr": "掛川市",
        "districts": []
      },
      {
        "id": 627,
        "name_en": "新潟市東区",
        "name_th": "新潟市東区",
        "name_jp": "新潟市東区",
        "name_kr": "新潟市東区",
        "districts": [
          {
            "id": 395,
            "name_en": "新潟県",
            "name_th": "新潟県",
            "name_jp": "新潟県",
            "name_kr": "新潟県"
          }
        ]
      },
      {
        "id": 628,
        "name_en": "本巣郡北方町",
        "name_th": "本巣郡北方町",
        "name_jp": "本巣郡北方町",
        "name_kr": "本巣郡北方町",
        "districts": []
      },
      {
        "id": 629,
        "name_en": "館林市",
        "name_th": "館林市",
        "name_jp": "館林市",
        "name_kr": "館林市",
        "districts": []
      },
      {
        "id": 630,
        "name_en": "北九州市若松区",
        "name_th": "北九州市若松区",
        "name_jp": "北九州市若松区",
        "name_kr": "北九州市若松区",
        "districts": []
      },
      {
        "id": 631,
        "name_en": "大田原市",
        "name_th": "大田原市",
        "name_jp": "大田原市",
        "name_kr": "大田原市",
        "districts": []
      },
      {
        "id": 632,
        "name_en": "ひたちなか市",
        "name_th": "ひたちなか市",
        "name_jp": "ひたちなか市",
        "name_kr": "ひたちなか市",
        "districts": []
      },
      {
        "id": 633,
        "name_en": "大分市",
        "name_th": "大分市",
        "name_jp": "大分市",
        "name_kr": "大分市",
        "districts": [
          {
            "id": 396,
            "name_en": "大分県",
            "name_th": "大分県",
            "name_jp": "大分県",
            "name_kr": "大分県"
          }
        ]
      },
      {
        "id": 634,
        "name_en": "石岡市",
        "name_th": "石岡市",
        "name_jp": "石岡市",
        "name_kr": "石岡市",
        "districts": []
      },
      {
        "id": 635,
        "name_en": "福井市",
        "name_th": "福井市",
        "name_jp": "福井市",
        "name_kr": "福井市",
        "districts": []
      },
      {
        "id": 636,
        "name_en": "小松市",
        "name_th": "小松市",
        "name_jp": "小松市",
        "name_kr": "小松市",
        "districts": []
      },
      {
        "id": 643,
        "name_en": "日立市",
        "name_th": "日立市",
        "name_jp": "日立市",
        "name_kr": "日立市",
        "districts": []
      },
      {
        "id": 649,
        "name_en": "出雲市",
        "name_th": "出雲市",
        "name_jp": "出雲市",
        "name_kr": "出雲市",
        "districts": [
          {
            "id": 397,
            "name_en": "島根県",
            "name_th": "島根県",
            "name_jp": "島根県",
            "name_kr": "島根県"
          }
        ]
      },
      {
        "id": 637,
        "name_en": "菊池郡菊陽町",
        "name_th": "菊池郡菊陽町",
        "name_jp": "菊池郡菊陽町",
        "name_kr": "菊池郡菊陽町",
        "districts": []
      },
      {
        "id": 645,
        "name_en": "安中市",
        "name_th": "安中市",
        "name_jp": "安中市",
        "name_kr": "安中市",
        "districts": []
      },
      {
        "id": 638,
        "name_en": "熊本市中央区",
        "name_th": "熊本市中央区",
        "name_jp": "熊本市中央区",
        "name_kr": "熊本市中央区",
        "districts": []
      },
      {
        "id": 639,
        "name_en": "坂東市",
        "name_th": "坂東市",
        "name_jp": "坂東市",
        "name_kr": "坂東市",
        "districts": []
      },
      {
        "id": 640,
        "name_en": "中津市",
        "name_th": "中津市",
        "name_jp": "中津市",
        "name_kr": "中津市",
        "districts": []
      },
      {
        "id": 641,
        "name_en": "盛岡市",
        "name_th": "盛岡市",
        "name_jp": "盛岡市",
        "name_kr": "盛岡市",
        "districts": []
      },
      {
        "id": 642,
        "name_en": "北葛城郡上牧町",
        "name_th": "北葛城郡上牧町",
        "name_jp": "北葛城郡上牧町",
        "name_kr": "北葛城郡上牧町",
        "districts": []
      },
      {
        "id": 644,
        "name_en": "丸亀市",
        "name_th": "丸亀市",
        "name_jp": "丸亀市",
        "name_kr": "丸亀市",
        "districts": []
      },
      {
        "id": 646,
        "name_en": "新潟市中央区",
        "name_th": "新潟市中央区",
        "name_jp": "新潟市中央区",
        "name_kr": "新潟市中央区",
        "districts": []
      },
      {
        "id": 648,
        "name_en": "大竹市",
        "name_th": "大竹市",
        "name_jp": "大竹市",
        "name_kr": "大竹市",
        "districts": []
      },
      {
        "id": 647,
        "name_en": "笠間市",
        "name_th": "笠間市",
        "name_jp": "笠間市",
        "name_kr": "笠間市",
        "districts": []
      },
      {
        "id": 650,
        "name_en": "箕面市",
        "name_th": "箕面市",
        "name_jp": "箕面市",
        "name_kr": "箕面市",
        "districts": []
      },
      {
        "id": 651,
        "name_en": "大阪市西成区",
        "name_th": "大阪市西成区",
        "name_jp": "大阪市西成区",
        "name_kr": "大阪市西成区",
        "districts": []
      },
      {
        "id": 652,
        "name_en": "瀬戸市",
        "name_th": "瀬戸市",
        "name_jp": "瀬戸市",
        "name_kr": "瀬戸市",
        "districts": []
      },
      {
        "id": 653,
        "name_en": "あま市",
        "name_th": "あま市",
        "name_jp": "あま市",
        "name_kr": "あま市",
        "districts": []
      },
      {
        "id": 654,
        "name_en": "津島市",
        "name_th": "津島市",
        "name_jp": "津島市",
        "name_kr": "津島市",
        "districts": []
      },
      {
        "id": 656,
        "name_en": "東海市",
        "name_th": "東海市",
        "name_jp": "東海市",
        "name_kr": "東海市",
        "districts": []
      },
      {
        "id": 657,
        "name_en": "芦屋市",
        "name_th": "芦屋市",
        "name_jp": "芦屋市",
        "name_kr": "芦屋市",
        "districts": []
      },
      {
        "id": 659,
        "name_en": "神戸市中央区",
        "name_th": "神戸市中央区",
        "name_jp": "神戸市中央区",
        "name_kr": "神戸市中央区",
        "districts": []
      },
      {
        "id": 660,
        "name_en": "神戸市垂水区",
        "name_th": "神戸市垂水区",
        "name_jp": "神戸市垂水区",
        "name_kr": "神戸市垂水区",
        "districts": []
      },
      {
        "id": 661,
        "name_en": "神戸市灘区",
        "name_th": "神戸市灘区",
        "name_jp": "神戸市灘区",
        "name_kr": "神戸市灘区",
        "districts": []
      },
      {
        "id": 665,
        "name_en": "神戸市兵庫区",
        "name_th": "神戸市兵庫区",
        "name_jp": "神戸市兵庫区",
        "name_kr": "神戸市兵庫区",
        "districts": []
      },
      {
        "id": 667,
        "name_en": "福知山市",
        "name_th": "福知山市",
        "name_jp": "福知山市",
        "name_kr": "福知山市",
        "districts": []
      },
      {
        "id": 669,
        "name_en": "北葛飾郡松伏町",
        "name_th": "北葛飾郡松伏町",
        "name_jp": "北葛飾郡松伏町",
        "name_kr": "北葛飾郡松伏町",
        "districts": []
      },
      {
        "id": 670,
        "name_en": "太田市",
        "name_th": "太田市",
        "name_jp": "太田市",
        "name_kr": "太田市",
        "districts": []
      },
      {
        "id": 671,
        "name_en": "野々市市",
        "name_th": "野々市市",
        "name_jp": "野々市市",
        "name_kr": "野々市市",
        "districts": []
      },
      {
        "id": 672,
        "name_en": "津山市",
        "name_th": "津山市",
        "name_jp": "津山市",
        "name_kr": "津山市",
        "districts": []
      },
      {
        "id": 674,
        "name_en": "龍ケ崎市",
        "name_th": "龍ケ崎市",
        "name_jp": "龍ケ崎市",
        "name_kr": "龍ケ崎市",
        "districts": []
      },
      {
        "id": 675,
        "name_en": "筑西市",
        "name_th": "筑西市",
        "name_jp": "筑西市",
        "name_kr": "筑西市",
        "districts": []
      },
      {
        "id": 676,
        "name_en": "熊本市南区",
        "name_th": "熊本市南区",
        "name_jp": "熊本市南区",
        "name_kr": "熊本市南区",
        "districts": []
      },
      {
        "id": 677,
        "name_en": "宇土市",
        "name_th": "宇土市",
        "name_jp": "宇土市",
        "name_kr": "宇土市",
        "districts": []
      },
      {
        "id": 678,
        "name_en": "高岡市",
        "name_th": "高岡市",
        "name_jp": "高岡市",
        "name_kr": "高岡市",
        "districts": []
      },
      {
        "id": 679,
        "name_en": "熊本市北区",
        "name_th": "熊本市北区",
        "name_jp": "熊本市北区",
        "name_kr": "熊本市北区",
        "districts": []
      },
      {
        "id": 680,
        "name_en": "松江市",
        "name_th": "松江市",
        "name_jp": "松江市",
        "name_kr": "松江市",
        "districts": []
      },
      {
        "id": 681,
        "name_en": "旭市",
        "name_th": "旭市",
        "name_jp": "旭市",
        "name_kr": "旭市",
        "districts": []
      },
      {
        "id": 682,
        "name_en": "菊池郡大津町",
        "name_th": "菊池郡大津町",
        "name_jp": "菊池郡大津町",
        "name_kr": "菊池郡大津町",
        "districts": []
      },
      {
        "id": 683,
        "name_en": "邑楽郡大泉町",
        "name_th": "邑楽郡大泉町",
        "name_jp": "邑楽郡大泉町",
        "name_kr": "邑楽郡大泉町",
        "districts": []
      },
      {
        "id": 684,
        "name_en": "甲府市",
        "name_th": "甲府市",
        "name_jp": "甲府市",
        "name_kr": "甲府市",
        "districts": [
          {
            "id": 398,
            "name_en": "山梨県",
            "name_th": "山梨県",
            "name_jp": "山梨県",
            "name_kr": "山梨県"
          }
        ]
      },
      {
        "id": 685,
        "name_en": "富津市",
        "name_th": "富津市",
        "name_jp": "富津市",
        "name_kr": "富津市",
        "districts": []
      },
      {
        "id": 686,
        "name_en": "亀岡市",
        "name_th": "亀岡市",
        "name_jp": "亀岡市",
        "name_kr": "亀岡市",
        "districts": []
      },
      {
        "id": 687,
        "name_en": "清瀬市",
        "name_th": "清瀬市",
        "name_jp": "清瀬市",
        "name_kr": "清瀬市",
        "districts": []
      },
      {
        "id": 688,
        "name_en": "山形市",
        "name_th": "山形市",
        "name_jp": "山形市",
        "name_kr": "山形市",
        "districts": [
          {
            "id": 399,
            "name_en": "山形県",
            "name_th": "山形県",
            "name_jp": "山形県",
            "name_kr": "山形県"
          }
        ]
      },
      {
        "id": 689,
        "name_en": "岩国市",
        "name_th": "岩国市",
        "name_jp": "岩国市",
        "name_kr": "岩国市",
        "districts": []
      },
      {
        "id": 690,
        "name_en": "下関市",
        "name_th": "下関市",
        "name_jp": "下関市",
        "name_kr": "下関市",
        "districts": []
      },
      {
        "id": 691,
        "name_en": "遠賀郡水巻町",
        "name_th": "遠賀郡水巻町",
        "name_jp": "遠賀郡水巻町",
        "name_kr": "遠賀郡水巻町",
        "districts": []
      },
      {
        "id": 692,
        "name_en": "泉佐野市",
        "name_th": "泉佐野市",
        "name_jp": "泉佐野市",
        "name_kr": "泉佐野市",
        "districts": []
      },
      {
        "id": 693,
        "name_en": "熊本市西区",
        "name_th": "熊本市西区",
        "name_jp": "熊本市西区",
        "name_kr": "熊本市西区",
        "districts": []
      },
      {
        "id": 694,
        "name_en": "上田市",
        "name_th": "上田市",
        "name_jp": "上田市",
        "name_kr": "上田市",
        "districts": [
          {
            "id": 400,
            "name_en": "長野県",
            "name_th": "長野県",
            "name_jp": "長野県",
            "name_kr": "長野県"
          }
        ]
      },
      {
        "id": 695,
        "name_en": "児玉郡上里町",
        "name_th": "児玉郡上里町",
        "name_jp": "児玉郡上里町",
        "name_kr": "児玉郡上里町",
        "districts": []
      },
      {
        "id": 696,
        "name_en": "都城市",
        "name_th": "都城市",
        "name_jp": "都城市",
        "name_kr": "都城市",
        "districts": []
      },
      {
        "id": 697,
        "name_en": "名古屋市名東区",
        "name_th": "名古屋市名東区",
        "name_jp": "名古屋市名東区",
        "name_kr": "名古屋市名東区",
        "districts": []
      },
      {
        "id": 698,
        "name_en": "名古屋市瑞穂区",
        "name_th": "名古屋市瑞穂区",
        "name_jp": "名古屋市瑞穂区",
        "name_kr": "名古屋市瑞穂区",
        "districts": []
      },
      {
        "id": 699,
        "name_en": "名古屋市天白区",
        "name_th": "名古屋市天白区",
        "name_jp": "名古屋市天白区",
        "name_kr": "名古屋市天白区",
        "districts": []
      },
      {
        "id": 701,
        "name_en": "名古屋市昭和区",
        "name_th": "名古屋市昭和区",
        "name_jp": "名古屋市昭和区",
        "name_kr": "名古屋市昭和区",
        "districts": []
      },
      {
        "id": 703,
        "name_en": "名古屋市中村区",
        "name_th": "名古屋市中村区",
        "name_jp": "名古屋市中村区",
        "name_kr": "名古屋市中村区",
        "districts": []
      },
      {
        "id": 705,
        "name_en": "名古屋市緑区",
        "name_th": "名古屋市緑区",
        "name_jp": "名古屋市緑区",
        "name_kr": "名古屋市緑区",
        "districts": []
      },
      {
        "id": 709,
        "name_en": "名古屋市港区",
        "name_th": "名古屋市港区",
        "name_jp": "名古屋市港区",
        "name_kr": "名古屋市港区",
        "districts": []
      },
      {
        "id": 711,
        "name_en": "北九州市門司区",
        "name_th": "北九州市門司区",
        "name_jp": "北九州市門司区",
        "name_kr": "北九州市門司区",
        "districts": []
      },
      {
        "id": 712,
        "name_en": "小郡市",
        "name_th": "小郡市",
        "name_jp": "小郡市",
        "name_kr": "小郡市",
        "districts": []
      },
      {
        "id": 713,
        "name_en": "筑紫野市",
        "name_th": "筑紫野市",
        "name_jp": "筑紫野市",
        "name_kr": "筑紫野市",
        "districts": []
      },
      {
        "id": 714,
        "name_en": "福津市",
        "name_th": "福津市",
        "name_jp": "福津市",
        "name_kr": "福津市",
        "districts": []
      },
      {
        "id": 715,
        "name_en": "北九州市小倉南区",
        "name_th": "北九州市小倉南区",
        "name_jp": "北九州市小倉南区",
        "name_kr": "北九州市小倉南区",
        "districts": []
      },
      {
        "id": 718,
        "name_en": "糟屋郡新宮町",
        "name_th": "糟屋郡新宮町",
        "name_jp": "糟屋郡新宮町",
        "name_kr": "糟屋郡新宮町",
        "districts": []
      },
      {
        "id": 719,
        "name_en": "江南市",
        "name_th": "江南市",
        "name_jp": "江南市",
        "name_kr": "江南市",
        "districts": []
      },
      {
        "id": 720,
        "name_en": "木津川市",
        "name_th": "木津川市",
        "name_jp": "木津川市",
        "name_kr": "木津川市",
        "districts": []
      },
      {
        "id": 721,
        "name_en": "八戸市",
        "name_th": "八戸市",
        "name_jp": "八戸市",
        "name_kr": "八戸市",
        "districts": [
          {
            "id": 401,
            "name_en": "青森県",
            "name_th": "青森県",
            "name_jp": "青森県",
            "name_kr": "青森県"
          }
        ]
      },
      {
        "id": 722,
        "name_en": "山口市",
        "name_th": "山口市",
        "name_jp": "山口市",
        "name_kr": "山口市",
        "districts": []
      },
      {
        "id": 723,
        "name_en": "福山市",
        "name_th": "福山市",
        "name_jp": "福山市",
        "name_kr": "福山市",
        "districts": []
      },
      {
        "id": 724,
        "name_en": "沖縄市",
        "name_th": "沖縄市",
        "name_jp": "沖縄市",
        "name_kr": "沖縄市",
        "districts": [
          {
            "id": 402,
            "name_en": "沖縄県",
            "name_th": "沖縄県",
            "name_jp": "沖縄県",
            "name_kr": "沖縄県"
          }
        ]
      },
      {
        "id": 725,
        "name_en": "裾野市",
        "name_th": "裾野市",
        "name_jp": "裾野市",
        "name_kr": "裾野市",
        "districts": []
      },
      {
        "id": 726,
        "name_en": "うるま市",
        "name_th": "うるま市",
        "name_jp": "うるま市",
        "name_kr": "うるま市",
        "districts": [
          {
            "id": 403,
            "name_en": "沖縄県",
            "name_th": "沖縄県",
            "name_jp": "沖縄県",
            "name_kr": "沖縄県"
          }
        ]
      },
      {
        "id": 727,
        "name_en": "浜松市東区",
        "name_th": "浜松市東区",
        "name_jp": "浜松市東区",
        "name_kr": "浜松市東区",
        "districts": []
      },
      {
        "id": 729,
        "name_en": "知多郡東浦町",
        "name_th": "知多郡東浦町",
        "name_jp": "知多郡東浦町",
        "name_kr": "知多郡東浦町",
        "districts": []
      },
      {
        "id": 728,
        "name_en": "昭島市",
        "name_th": "昭島市",
        "name_jp": "昭島市",
        "name_kr": "昭島市",
        "districts": []
      },
      {
        "id": 730,
        "name_en": "海部郡大治町",
        "name_th": "海部郡大治町",
        "name_jp": "海部郡大治町",
        "name_kr": "海部郡大治町",
        "districts": []
      },
      {
        "id": 731,
        "name_en": "長久手市",
        "name_th": "長久手市",
        "name_jp": "長久手市",
        "name_kr": "長久手市",
        "districts": []
      },
      {
        "id": 732,
        "name_en": "丹羽郡扶桑町",
        "name_th": "丹羽郡扶桑町",
        "name_jp": "丹羽郡扶桑町",
        "name_kr": "丹羽郡扶桑町",
        "districts": []
      },
      {
        "id": 733,
        "name_en": "愛知郡東郷町",
        "name_th": "愛知郡東郷町",
        "name_jp": "愛知郡東郷町",
        "name_kr": "愛知郡東郷町",
        "districts": []
      },
      {
        "id": 734,
        "name_en": "大府市",
        "name_th": "大府市",
        "name_jp": "大府市",
        "name_kr": "大府市",
        "districts": []
      },
      {
        "id": 735,
        "name_en": "羽村市",
        "name_th": "羽村市",
        "name_jp": "羽村市",
        "name_kr": "羽村市",
        "districts": []
      },
      {
        "id": 736,
        "name_en": "東村山市",
        "name_th": "東村山市",
        "name_jp": "東村山市",
        "name_kr": "東村山市",
        "districts": []
      },
      {
        "id": 737,
        "name_en": "常総市",
        "name_th": "常総市",
        "name_jp": "常総市",
        "name_kr": "常総市",
        "districts": []
      },
      {
        "id": 738,
        "name_en": "河北郡内灘町",
        "name_th": "河北郡内灘町",
        "name_jp": "河北郡内灘町",
        "name_kr": "河北郡内灘町",
        "districts": []
      },
      {
        "id": 739,
        "name_en": "知立市",
        "name_th": "知立市",
        "name_jp": "知立市",
        "name_kr": "知立市",
        "districts": []
      },
      {
        "id": 740,
        "name_en": "稲沢市",
        "name_th": "稲沢市",
        "name_jp": "稲沢市",
        "name_kr": "稲沢市",
        "districts": []
      },
      {
        "id": 741,
        "name_en": "豊明市",
        "name_th": "豊明市",
        "name_jp": "豊明市",
        "name_kr": "豊明市",
        "districts": []
      },
      {
        "id": 742,
        "name_en": "東近江市",
        "name_th": "東近江市",
        "name_jp": "東近江市",
        "name_kr": "東近江市",
        "districts": []
      },
      {
        "id": 744,
        "name_en": "海部郡蟹江町",
        "name_th": "海部郡蟹江町",
        "name_jp": "海部郡蟹江町",
        "name_kr": "海部郡蟹江町",
        "districts": []
      },
      {
        "id": 743,
        "name_en": "岩倉市",
        "name_th": "岩倉市",
        "name_jp": "岩倉市",
        "name_kr": "岩倉市",
        "districts": []
      },
      {
        "id": 745,
        "name_en": "高浜市",
        "name_th": "高浜市",
        "name_jp": "高浜市",
        "name_kr": "高浜市",
        "districts": []
      },
      {
        "id": 746,
        "name_en": "気仙沼市",
        "name_th": "気仙沼市",
        "name_jp": "気仙沼市",
        "name_kr": "気仙沼市",
        "districts": []
      },
      {
        "id": 747,
        "name_en": "一関市",
        "name_th": "一関市",
        "name_jp": "一関市",
        "name_kr": "一関市",
        "districts": []
      },
      {
        "id": 748,
        "name_en": "糟屋郡粕屋町",
        "name_th": "糟屋郡粕屋町",
        "name_jp": "糟屋郡粕屋町",
        "name_kr": "糟屋郡粕屋町",
        "districts": []
      },
      {
        "id": 749,
        "name_en": "古賀市",
        "name_th": "古賀市",
        "name_jp": "古賀市",
        "name_kr": "古賀市",
        "districts": []
      },
      {
        "id": 750,
        "name_en": "北九州市八幡東区",
        "name_th": "北九州市八幡東区",
        "name_jp": "北九州市八幡東区",
        "name_kr": "北九州市八幡東区",
        "districts": []
      },
      {
        "id": 751,
        "name_en": "藤岡市",
        "name_th": "藤岡市",
        "name_jp": "藤岡市",
        "name_kr": "藤岡市",
        "districts": []
      },
      {
        "id": 752,
        "name_en": "糟屋郡須惠町",
        "name_th": "糟屋郡須惠町",
        "name_jp": "糟屋郡須惠町",
        "name_kr": "糟屋郡須惠町",
        "districts": []
      },
      {
        "id": 753,
        "name_en": "大阪市東成区",
        "name_th": "大阪市東成区",
        "name_jp": "大阪市東成区",
        "name_kr": "大阪市東成区",
        "districts": []
      },
      {
        "id": 754,
        "name_en": "貝塚市",
        "name_th": "貝塚市",
        "name_jp": "貝塚市",
        "name_kr": "貝塚市",
        "districts": []
      },
      {
        "id": 164,
        "name_en": "Kitakyushu City",
        "name_th": "Kitakyushu City",
        "name_jp": "北九州市八幡西区",
        "name_kr": "Kitakyushu City",
        "districts": [
          {
            "id": 354,
            "name_en": "福岡県",
            "name_th": "福岡県",
            "name_jp": "福岡県",
            "name_kr": "福岡県"
          }
        ]
      },
      {
        "id": 755,
        "name_en": "相模原市",
        "name_th": "相模原市",
        "name_jp": "相模原市",
        "name_kr": "相模原市",
        "districts": []
      },
      {
        "id": 756,
        "name_en": "藤井寺市",
        "name_th": "藤井寺市",
        "name_jp": "藤井寺市",
        "name_kr": "藤井寺市",
        "districts": []
      },
      {
        "id": 757,
        "name_en": "小樽市",
        "name_th": "小樽市",
        "name_jp": "小樽市",
        "name_kr": "小樽市",
        "districts": []
      },
      {
        "id": 758,
        "name_en": "須賀川市",
        "name_th": "須賀川市",
        "name_jp": "須賀川市",
        "name_kr": "須賀川市",
        "districts": []
      },
      {
        "id": 759,
        "name_en": "札幌市西区",
        "name_th": "札幌市西区",
        "name_jp": "札幌市西区",
        "name_kr": "札幌市西区",
        "districts": []
      }
    ]
  },
  {
    "id": 1,
    "name_en": "Singapore",
    "name_th": "Singapore",
    "name_jp": "Singapore",
    "name_kr": "Singapore",
    "code": "SGP",
    "currency": "SGD",
    "currency_sign": "S$",
    "cities": [
      {
        "id": 1,
        "name_en": "Singapore",
        "name_th": "Singapore",
        "name_jp": "Singapore",
        "name_kr": "Singapore",
        "districts": [
          {
            "id": 7,
            "name_en": "Bukit Panjang",
            "name_th": "Bukit Panjang",
            "name_jp": "Bukit Panjang",
            "name_kr": "Bukit Panjang"
          },
          {
            "id": 12,
            "name_en": "Choa Chu Kang",
            "name_th": "Choa Chu Kang",
            "name_jp": "Choa Chu Kang",
            "name_kr": "Choa Chu Kang"
          },
          {
            "id": 21,
            "name_en": "Mandai",
            "name_th": "Mandai",
            "name_jp": "Mandai",
            "name_kr": "Mandai"
          },
          {
            "id": 26,
            "name_en": "Newton",
            "name_th": "Newton",
            "name_jp": "Newton",
            "name_kr": "Newton"
          },
          {
            "id": 30,
            "name_en": "Outram",
            "name_th": "Outram",
            "name_jp": "Outram",
            "name_kr": "Outram"
          },
          {
            "id": 37,
            "name_en": "Rochor",
            "name_th": "Rochor",
            "name_jp": "Rochor",
            "name_kr": "Rochor"
          },
          {
            "id": 42,
            "name_en": "Simpang",
            "name_th": "Simpang",
            "name_jp": "Simpang",
            "name_kr": "Simpang"
          },
          {
            "id": 49,
            "name_en": "Tengah",
            "name_th": "Tengah",
            "name_jp": "Tengah",
            "name_kr": "Tengah"
          },
          {
            "id": 1,
            "name_en": "Ang Mo Kio",
            "name_th": "Ang Mo Kio",
            "name_jp": "Ang Mo Kio",
            "name_kr": "Ang Mo Kio"
          },
          {
            "id": 2,
            "name_en": "Bedok",
            "name_th": "Bedok",
            "name_jp": "Bedok",
            "name_kr": "Bedok"
          },
          {
            "id": 3,
            "name_en": "Bishan",
            "name_th": "Bishan",
            "name_jp": "Bishan",
            "name_kr": "Bishan"
          },
          {
            "id": 4,
            "name_en": "Boon Lay",
            "name_th": "Boon Lay",
            "name_jp": "Boon Lay",
            "name_kr": "Boon Lay"
          },
          {
            "id": 5,
            "name_en": "Bukit Batok",
            "name_th": "Bukit Batok",
            "name_jp": "Bukit Batok",
            "name_kr": "Bukit Batok"
          },
          {
            "id": 6,
            "name_en": "Bukit Merah",
            "name_th": "Bukit Merah",
            "name_jp": "Bukit Merah",
            "name_kr": "Bukit Merah"
          },
          {
            "id": 8,
            "name_en": "Bukit Timah",
            "name_th": "Bukit Timah",
            "name_jp": "Bukit Timah",
            "name_kr": "Bukit Timah"
          },
          {
            "id": 9,
            "name_en": "Central Water Catchment",
            "name_th": "Central Water Catchment",
            "name_jp": "Central Water Catchment",
            "name_kr": "Central Water Catchment"
          },
          {
            "id": 10,
            "name_en": "Changi",
            "name_th": "Changi",
            "name_jp": "Changi",
            "name_kr": "Changi"
          },
          {
            "id": 11,
            "name_en": "Changi Bay",
            "name_th": "Changi Bay",
            "name_jp": "Changi Bay",
            "name_kr": "Changi Bay"
          },
          {
            "id": 13,
            "name_en": "Clementi",
            "name_th": "Clementi",
            "name_jp": "Clementi",
            "name_kr": "Clementi"
          },
          {
            "id": 14,
            "name_en": "Downtown Core",
            "name_th": "Downtown Core",
            "name_jp": "Downtown Core",
            "name_kr": "Downtown Core"
          },
          {
            "id": 15,
            "name_en": "Geylang",
            "name_th": "Geylang",
            "name_jp": "Geylang",
            "name_kr": "Geylang"
          },
          {
            "id": 16,
            "name_en": "Hougang",
            "name_th": "Hougang",
            "name_jp": "Hougang",
            "name_kr": "Hougang"
          },
          {
            "id": 17,
            "name_en": "Jurong East",
            "name_th": "Jurong East",
            "name_jp": "Jurong East",
            "name_kr": "Jurong East"
          },
          {
            "id": 18,
            "name_en": "Jurong West",
            "name_th": "Jurong West",
            "name_jp": "Jurong West",
            "name_kr": "Jurong West"
          },
          {
            "id": 19,
            "name_en": "Kallang",
            "name_th": "Kallang",
            "name_jp": "Kallang",
            "name_kr": "Kallang"
          },
          {
            "id": 20,
            "name_en": "Lim Chu Kang",
            "name_th": "Lim Chu Kang",
            "name_jp": "Lim Chu Kang",
            "name_kr": "Lim Chu Kang"
          },
          {
            "id": 22,
            "name_en": "Marina East",
            "name_th": "Marina East",
            "name_jp": "Marina East",
            "name_kr": "Marina East"
          },
          {
            "id": 23,
            "name_en": "Marina South",
            "name_th": "Marina South",
            "name_jp": "Marina South",
            "name_kr": "Marina South"
          },
          {
            "id": 24,
            "name_en": "Marine Parade",
            "name_th": "Marine Parade",
            "name_jp": "Marine Parade",
            "name_kr": "Marine Parade"
          },
          {
            "id": 25,
            "name_en": "Museum",
            "name_th": "Museum",
            "name_jp": "Museum",
            "name_kr": "Museum"
          },
          {
            "id": 27,
            "name_en": "North-Eastern Islands",
            "name_th": "North-Eastern Islands",
            "name_jp": "North-Eastern Islands",
            "name_kr": "North-Eastern Islands"
          },
          {
            "id": 28,
            "name_en": "Novena",
            "name_th": "Novena",
            "name_jp": "Novena",
            "name_kr": "Novena"
          },
          {
            "id": 29,
            "name_en": "Orchard",
            "name_th": "Orchard",
            "name_jp": "Orchard",
            "name_kr": "Orchard"
          },
          {
            "id": 31,
            "name_en": "Pasir Ris",
            "name_th": "Pasir Ris",
            "name_jp": "Pasir Ris",
            "name_kr": "Pasir Ris"
          },
          {
            "id": 32,
            "name_en": "Paya Lebar",
            "name_th": "Paya Lebar",
            "name_jp": "Paya Lebar",
            "name_kr": "Paya Lebar"
          },
          {
            "id": 33,
            "name_en": "Pioneer",
            "name_th": "Pioneer",
            "name_jp": "Pioneer",
            "name_kr": "Pioneer"
          },
          {
            "id": 34,
            "name_en": "Punggol",
            "name_th": "Punggol",
            "name_jp": "Punggol",
            "name_kr": "Punggol"
          },
          {
            "id": 35,
            "name_en": "Queenstown",
            "name_th": "Queenstown",
            "name_jp": "Queenstown",
            "name_kr": "Queenstown"
          },
          {
            "id": 36,
            "name_en": "River Valley",
            "name_th": "River Valley",
            "name_jp": "River Valley",
            "name_kr": "River Valley"
          },
          {
            "id": 38,
            "name_en": "Seletar",
            "name_th": "Seletar",
            "name_jp": "Seletar",
            "name_kr": "Seletar"
          },
          {
            "id": 39,
            "name_en": "Sembawang",
            "name_th": "Sembawang",
            "name_jp": "Sembawang",
            "name_kr": "Sembawang"
          },
          {
            "id": 41,
            "name_en": "Serangoon",
            "name_th": "Serangoon",
            "name_jp": "Serangoon",
            "name_kr": "Serangoon"
          },
          {
            "id": 43,
            "name_en": "Singapore River",
            "name_th": "Singapore River",
            "name_jp": "Singapore River",
            "name_kr": "Singapore River"
          },
          {
            "id": 45,
            "name_en": "Straits View",
            "name_th": "Straits View",
            "name_jp": "Straits View",
            "name_kr": "Straits View"
          },
          {
            "id": 46,
            "name_en": "Sungei Kadut",
            "name_th": "Sungei Kadut",
            "name_jp": "Sungei Kadut",
            "name_kr": "Sungei Kadut"
          },
          {
            "id": 47,
            "name_en": "Tampines",
            "name_th": "Tampines",
            "name_jp": "Tampines",
            "name_kr": "Tampines"
          },
          {
            "id": 48,
            "name_en": "Tanglin",
            "name_th": "Tanglin",
            "name_jp": "Tanglin",
            "name_kr": "Tanglin"
          },
          {
            "id": 50,
            "name_en": "Toa Payoh",
            "name_th": "Toa Payoh",
            "name_jp": "Toa Payoh",
            "name_kr": "Toa Payoh"
          },
          {
            "id": 51,
            "name_en": "Tuas",
            "name_th": "Tuas",
            "name_jp": "Tuas",
            "name_kr": "Tuas"
          },
          {
            "id": 52,
            "name_en": "Western Islands",
            "name_th": "Western Islands",
            "name_jp": "Western Islands",
            "name_kr": "Western Islands"
          },
          {
            "id": 53,
            "name_en": "Western Water Catchment",
            "name_th": "Western Water Catchment",
            "name_jp": "Western Water Catchment",
            "name_kr": "Western Water Catchment"
          },
          {
            "id": 54,
            "name_en": "Woodlands",
            "name_th": "Woodlands",
            "name_jp": "Woodlands",
            "name_kr": "Woodlands"
          },
          {
            "id": 55,
            "name_en": "Yishun",
            "name_th": "Yishun",
            "name_jp": "Yishun",
            "name_kr": "Yishun"
          },
          {
            "id": 44,
            "name_en": "Southern Islands",
            "name_th": "Southern Islands",
            "name_jp": "Southern Islands",
            "name_kr": "Southern Islands"
          },
          {
            "id": 40,
            "name_en": "Sengkang",
            "name_th": "Sengkang",
            "name_jp": "Sengkang",
            "name_kr": "Sengkang"
          }
        ]
      }
    ]
  },
  {
    "id": 3,
    "name_en": "Thailand",
    "name_th": "ไทย",
    "name_jp": "Thailand",
    "name_kr": "Thailand",
    "code": "TH",
    "currency": "THB",
    "currency_sign": "฿",
    "cities": [
      {
        "id": 2,
        "name_en": "Bangkok",
        "name_th": "กรุงเทพฯ",
        "name_jp": "Bangkok",
        "name_kr": "Bangkok",
        "districts": [
          {
            "id": 56,
            "name_en": "Bang Bon",
            "name_th": "บางบอน",
            "name_jp": "Bang Bon",
            "name_kr": "Bang Bon"
          },
          {
            "id": 57,
            "name_en": "Bang Kapi",
            "name_th": "บางกะปิ",
            "name_jp": "Bang Kapi",
            "name_kr": "Bang Kapi"
          },
          {
            "id": 58,
            "name_en": "Bang Khae",
            "name_th": "บางแค",
            "name_jp": "Bang Khae",
            "name_kr": "Bang Khae"
          },
          {
            "id": 59,
            "name_en": "Bang Khen",
            "name_th": "บางเขน",
            "name_jp": "Bang Khen",
            "name_kr": "Bang Khen"
          },
          {
            "id": 60,
            "name_en": "Bang Kho Laem",
            "name_th": "บางคอแหลม",
            "name_jp": "Bang Kho Laem",
            "name_kr": "Bang Kho Laem"
          },
          {
            "id": 61,
            "name_en": "Bang Khun Thian",
            "name_th": "บางขุนเทียน",
            "name_jp": "Bang Khun Thian",
            "name_kr": "Bang Khun Thian"
          },
          {
            "id": 62,
            "name_en": "Bang Na",
            "name_th": "บางนา",
            "name_jp": "Bang Na",
            "name_kr": "Bang Na"
          },
          {
            "id": 63,
            "name_en": "Bang Phlat",
            "name_th": "บางพลัด",
            "name_jp": "Bang Phlat",
            "name_kr": "Bang Phlat"
          },
          {
            "id": 64,
            "name_en": "Bang Rak",
            "name_th": "บางรัก",
            "name_jp": "Bang Rak",
            "name_kr": "Bang Rak"
          },
          {
            "id": 65,
            "name_en": "Bang Sue",
            "name_th": "บางซื่อ",
            "name_jp": "Bang Sue",
            "name_kr": "Bang Sue"
          },
          {
            "id": 66,
            "name_en": "Bangkok Noi",
            "name_th": "บางกอกน้อย",
            "name_jp": "Bangkok Noi",
            "name_kr": "Bangkok Noi"
          },
          {
            "id": 67,
            "name_en": "Bangkok Yai",
            "name_th": "บางกอกใหญ่",
            "name_jp": "Bangkok Yai",
            "name_kr": "Bangkok Yai"
          },
          {
            "id": 68,
            "name_en": "Bueng Kum",
            "name_th": "บึงกุ่ม",
            "name_jp": "Bueng Kum",
            "name_kr": "Bueng Kum"
          },
          {
            "id": 69,
            "name_en": "Chatuchak",
            "name_th": "จตุจักร",
            "name_jp": "Chatuchak",
            "name_kr": "Chatuchak"
          },
          {
            "id": 70,
            "name_en": "Chom Thong",
            "name_th": "จอมทอง",
            "name_jp": "Chom Thong",
            "name_kr": "Chom Thong"
          },
          {
            "id": 71,
            "name_en": "Din Daeng",
            "name_th": "ดินแดง",
            "name_jp": "Din Daeng",
            "name_kr": "Din Daeng"
          },
          {
            "id": 72,
            "name_en": "Don Mueang",
            "name_th": "ดอนเมือง",
            "name_jp": "Don Mueang",
            "name_kr": "Don Mueang"
          },
          {
            "id": 73,
            "name_en": "Dusit",
            "name_th": "ดุสิต",
            "name_jp": "Dusit",
            "name_kr": "Dusit"
          },
          {
            "id": 74,
            "name_en": "Huai Khwang",
            "name_th": "ห้วยขวาง",
            "name_jp": "Huai Khwang",
            "name_kr": "Huai Khwang"
          },
          {
            "id": 75,
            "name_en": "Khan Na Yao",
            "name_th": "คันนายาว",
            "name_jp": "Khan Na Yao",
            "name_kr": "Khan Na Yao"
          },
          {
            "id": 76,
            "name_en": "Khlong Sam Wa",
            "name_th": "คลองสามวา",
            "name_jp": "Khlong Sam Wa",
            "name_kr": "Khlong Sam Wa"
          },
          {
            "id": 77,
            "name_en": "Khlong San",
            "name_th": "คลองสาน",
            "name_jp": "Khlong San",
            "name_kr": "Khlong San"
          },
          {
            "id": 78,
            "name_en": "Khlong Toei",
            "name_th": "คลองเตย",
            "name_jp": "Khlong Toei",
            "name_kr": "Khlong Toei"
          },
          {
            "id": 79,
            "name_en": "Lak Si",
            "name_th": "หลักสี่",
            "name_jp": "Lak Si",
            "name_kr": "Lak Si"
          },
          {
            "id": 80,
            "name_en": "Lat Krabang",
            "name_th": "ลาดกระบัง",
            "name_jp": "Lat Krabang",
            "name_kr": "Lat Krabang"
          },
          {
            "id": 81,
            "name_en": "Lat Phrao",
            "name_th": "ลาดพร้าว",
            "name_jp": "Lat Phrao",
            "name_kr": "Lat Phrao"
          },
          {
            "id": 82,
            "name_en": "Min Buri",
            "name_th": "มีนบุรี",
            "name_jp": "Min Buri",
            "name_kr": "Min Buri"
          },
          {
            "id": 83,
            "name_en": "Nong Chok",
            "name_th": "หนองจอก",
            "name_jp": "Nong Chok",
            "name_kr": "Nong Chok"
          },
          {
            "id": 84,
            "name_en": "Nong Khaem",
            "name_th": "หนองแขม",
            "name_jp": "Nong Khaem",
            "name_kr": "Nong Khaem"
          },
          {
            "id": 85,
            "name_en": "Pathum Wan",
            "name_th": "ปทุมวัน",
            "name_jp": "Pathum Wan",
            "name_kr": "Pathum Wan"
          },
          {
            "id": 86,
            "name_en": "Phasi Charoen",
            "name_th": "ภาษีเจริญ",
            "name_jp": "Phasi Charoen",
            "name_kr": "Phasi Charoen"
          },
          {
            "id": 87,
            "name_en": "Phaya Thai",
            "name_th": "พญาไท",
            "name_jp": "Phaya Thai",
            "name_kr": "Phaya Thai"
          },
          {
            "id": 88,
            "name_en": "Phra Khanong",
            "name_th": "พระโขนง",
            "name_jp": "Phra Khanong",
            "name_kr": "Phra Khanong"
          },
          {
            "id": 89,
            "name_en": "Phra Nakhon",
            "name_th": "พระนคร",
            "name_jp": "Phra Nakhon",
            "name_kr": "Phra Nakhon"
          },
          {
            "id": 90,
            "name_en": "Pom Prap Sattru Phai",
            "name_th": "ป้อมปราบศัตรูพ่าย",
            "name_jp": "Pom Prap Sattru Phai",
            "name_kr": "Pom Prap Sattru Phai"
          },
          {
            "id": 91,
            "name_en": "Prawet",
            "name_th": "ประเวศ",
            "name_jp": "Prawet",
            "name_kr": "Prawet"
          },
          {
            "id": 92,
            "name_en": "Rat Burana",
            "name_th": "ราษฏร์บูรณะ",
            "name_jp": "Rat Burana",
            "name_kr": "Rat Burana"
          },
          {
            "id": 93,
            "name_en": "Ratchathewi",
            "name_th": "ราชเทวี",
            "name_jp": "Ratchathewi",
            "name_kr": "Ratchathewi"
          },
          {
            "id": 94,
            "name_en": "Sai Mai",
            "name_th": "สายไหม",
            "name_jp": "Sai Mai",
            "name_kr": "Sai Mai"
          },
          {
            "id": 95,
            "name_en": "Samphanthawong",
            "name_th": "สัมพันธวงศ์",
            "name_jp": "Samphanthawong",
            "name_kr": "Samphanthawong"
          },
          {
            "id": 96,
            "name_en": "Saphan Sung",
            "name_th": "สะพานสูง",
            "name_jp": "Saphan Sung",
            "name_kr": "Saphan Sung"
          },
          {
            "id": 97,
            "name_en": "Sathon",
            "name_th": "สาทร",
            "name_jp": "Sathon",
            "name_kr": "Sathon"
          },
          {
            "id": 98,
            "name_en": "Suan Luang",
            "name_th": "สวนหลวง",
            "name_jp": "Suan Luang",
            "name_kr": "Suan Luang"
          },
          {
            "id": 99,
            "name_en": "Taling Chan",
            "name_th": "ตลิ่งชัน",
            "name_jp": "Taling Chan",
            "name_kr": "Taling Chan"
          },
          {
            "id": 100,
            "name_en": "Thawi Watthana",
            "name_th": "ทวีวัฒนา",
            "name_jp": "Thawi Watthana",
            "name_kr": "Thawi Watthana"
          },
          {
            "id": 101,
            "name_en": "Thon Buri",
            "name_th": "ธนบุรี",
            "name_jp": "Thon Buri",
            "name_kr": "Thon Buri"
          },
          {
            "id": 102,
            "name_en": "Thung Khru",
            "name_th": "ทุ่งครุ",
            "name_jp": "Thung Khru",
            "name_kr": "Thung Khru"
          },
          {
            "id": 103,
            "name_en": "Wang Thonglang",
            "name_th": "วังทองหลาง",
            "name_jp": "Wang Thonglang",
            "name_kr": "Wang Thonglang"
          },
          {
            "id": 104,
            "name_en": "Watthana",
            "name_th": "วัฒนา",
            "name_jp": "Watthana",
            "name_kr": "Watthana"
          },
          {
            "id": 105,
            "name_en": "Yan Nawa",
            "name_th": "ยานนาวา",
            "name_jp": "Yan Nawa",
            "name_kr": "Yan Nawa"
          }
        ]
      }
    ]
  }
]